street,street_num,address,unit,location_id,biz_name,class_desc_cat,class_desc_detail,2,3,4,5,6,7,8,9,10,11,12,13,14,15,16
E BABCOCK,106,106 E BABCOCK ST, ,5200,BOUNTIFUL TABLE CUSTOM CATERNG,FOOD SERVICE,CATERING,2002-01-03,2003-02-10,2003-12-24,2005-02-08,2006-02-01,2007-01-31,2008-01-23,2008-12-22,2009-12-22,2011-01-26,2011-12-20,2012-12-24,2013-12-23,2014-12-19,2015-12-23
E BABCOCK,106,106 E BABCOCK ST,UNIT C,211570,ENGINEERING INC DBA SANDERSON STEWART,SERVICE,OTHER,,,,,,,,,,,,,,2015-06-11,2016-01-20
E BABCOCK,234,234 E BABCOCK ST, ,2500,AFFORDABLE ACCOUNTING INC,SERVICE,FINANCIAL/INVESTMENT,2002-01-16,2003-12-17,2003-12-17,,,,,,,,,,,,
E BABCOCK,234,234 E BABCOCK ST, ,2500,BODIES IN MOTION THERAPEUTICS LLC,SERVICE,HEALTH CARE,,,,,,,,,,2011-11-30,,,,,
E BABCOCK,234,234 E BABCOCK ST, ,2500,MOUNTAIN YOGA,SERVICE,DANCE STUDIO,,,,,,,,,,,2012-05-02,2013-02-13,2013-12-30,2015-04-24,2016-02-17
E BABCOCK,234,234 E BABCOCK ST, ,2500,PERFECT 10 NAILS,RETAIL,BEAUTY & HEALTH,2002-01-02,2003-01-31,2003-12-29,2005-01-07,2005-12-28,2007-02-09,2008-03-03,2008-12-30,2010-02-01,2011-02-14,2012-01-18,2013-01-09,2014-01-24,2014-12-19,2016-03-22
E BABCOCK,234,234 E BABCOCK ST, ,2500,RELAXING REMEDIES MASSAGE,SERVICE,MASSAGE THERAPY,2002-02-22,,,,,,,,,,,,,,
E BABCOCK,234,234 E BABCOCK ST, ,2500,SALON SIMPATICO,SERVICE,HEALTH & BEAUTY,,,,,,,,,,,2011-12-19,,,2015-03-23,
E BABCOCK,234,234 E BABCOCK ST, ,2500,SEWING AND ALTERATIONS,SERVICE,SEWING/ALTERATIONS,2002-02-04,2003-01-24,2004-01-14,,,,,,,,,,,,
E BABCOCK,234,234 E BABCOCK ST, ,2500,SUN & MOON MONTANA,SERVICE,MASSAGE THERAPY,,2003-06-19,2004-01-02,2005-01-21,2006-01-03,2007-01-10,2007-12-18,2008-12-26,2009-12-21,2010-12-27,2012-01-04,2012-12-27,2014-01-02,2014-12-23,2015-12-21
E BABCOCK,316,316 E BABCOCK ST, ,2540,NOT SO NU2U! THRIFT OUTLET,RETAIL,CLOTHING AND/OR SHOES,,2003-11-06,,,,,,,,,,,,,
E BABCOCK,414,414 E BABCOCK ST, ,2220,"BOZEMAN BOWL, THE",FOOD SERVICE,RESTAURANT,2002-02-15,2003-01-31,2004-12-20,2005-01-03,2006-01-19,2007-01-04,2008-07-22,2009-01-13,2010-01-25,2011-02-10,2012-02-13,2013-02-07,2014-02-07,2015-01-21,2016-02-02
E BABCOCK,520,520 E BABCOCK ST, ,1740,INDIRA SPA & WELLNESS,SERVICE,HEALTH & BEAUTY,,,,,,,2009-03-04,2009-03-04,2010-03-11,2011-01-20,2012-02-15,2013-01-29,2014-03-05,2015-04-13,2016-02-16
E BABCOCK,520,520 E BABCOCK ST, ,1740,JOHN RIMI CUSTOM FINISHES,CONTRACTORS,PAINTING,,,,,,,2008-04-03,2009-02-13,2010-03-11,2011-02-15,2012-02-16,2013-06-27,,2015-06-11,2016-02-16
E BABCOCK,533,533 E BABCOCK ST,UNITS 1-10,870,THE PELLERIN COMPANY LLC,SERVICE,FINANCIAL/INVESTMENT,,,,,,,,,,,,,,,2016-03-02
E BABCOCK,541,541 E BABCOCK ST, ,850,EAST BABCOCK LLC,RENTALS,VACATION RENTALS,,,,,,,,,,,,,,2015-06-02,2016-01-06
E BABCOCK,541,541 E BABCOCK ST, ,850,SERVICE ADVENTURES INT'L LLC,SERVICE,OTHER,,,,,,,,,,2011-03-16,2011-12-30,2013-03-05,2013-12-19,2014-12-11,2016-01-06
E BABCOCK,548,548 E BABCOCK ST, ,880,FRANK'S GOURMET GRILL & DELI,FOOD SERVICE,CATERING,2002-05-31,2003-03-05,2004-02-09,2005-04-07,2008-08-14,2008-08-14,2008-04-04,2009-07-08,2010-03-08,2011-01-11,2011-12-20,2012-12-21,2013-12-19,2015-01-21,2015-12-18
E BABCOCK,548,548 E BABCOCK ST, ,880,SWEET THINGS,FOOD SERVICE,CATERING,,2003-05-15,2003-12-24,,,,,,,,,,,,
E BEALL,7,7 E BEALL ST, ,27050,"OFF THE BEATEN PATH,LLC",RETAIL,TRAVEL AGENCY,2002-01-24,2003-02-07,2004-01-28,2005-01-04,2006-02-13,2007-01-22,2008-01-04,2009-02-04,2010-01-28,2011-01-27,2012-02-15,2013-02-06,2014-01-14,2014-12-26,2016-01-25
E LAMME,108,108 E LAMME ST, ,96690,KOKOPELLI ARTS,SERVICE,CLEANING SERVICE,,,,,,,,,,,,,,2015-06-11,
E LAMME,114,114 E LAMME ST, ,30790,LAST BEST CHEFS,SERVICE,OTHER,,,,,,,,,2010-02-05,,,,,,
E MAIN,1,1 E MAIN ST, ,26600,"BRIDGER KITCHEN INTERIORS, INC",RETAIL,FURNITURE/HOME INTERIORS,2002-01-02,2003-01-31,2004-02-06,2005-01-03,2006-02-06,2006-12-26,2008-01-03,2009-01-07,2010-01-06,2010-12-30,2012-01-03,,,,
E MAIN,1,1 E MAIN ST, ,26600,GIRLS OUTDOORS,RETAIL,CLOTHING AND/OR SHOES,,,,,2006-04-18,2007-02-06,2008-02-07,2009-02-09,2010-02-08,2011-01-13,2012-02-10,2013-01-11,2013-12-31,2015-01-21,2016-02-18
E MAIN,1,1 E MAIN ST, ,26600,IDEAL BITE,SERVICE,OTHER,,,,,,,,2009-08-24,,,,,,,
E MAIN,1,1 E MAIN ST, ,26600,PLUM DESIGN LAB LLC,SERVICE,OTHER,,,,,,,,,,,,,,,2016-03-10
E MAIN,2,2 E MAIN ST, ,103410,MILLER'S JEWELRY,RETAIL,JEWELRY,2002-02-07,2003-02-04,2004-02-02,2005-02-22,2005-12-28,2006-12-27,2007-12-31,2008-12-22,2009-12-22,2011-01-04,2011-12-19,2012-12-19,2014-02-07,2014-12-29,2016-01-20
E MAIN,5,5 E MAIN ST, ,101680,COLLECTIVE BY DAWN JOSEPHINE,RETAIL,ARTS & CRAFTS,,,,,,,,,,,,,,2015-10-22,2016-01-13
E MAIN,9,9 E MAIN ST, ,26670,G W DESIGNS,RETAIL,BEAUTY & HEALTH,,,,,,2007-05-10,2008-05-01,2009-02-03,2010-07-06,2011-05-17,2012-03-08,2013-03-07,2014-03-06,2015-01-21,
E MAIN,9,9 E MAIN ST, ,26670,G W DESIGNS,SERVICE,INTERIOR DESIGN,2002-02-04,2003-01-16,2004-01-29,2005-01-06,2006-01-20,,,,,,,,,,
E MAIN,9,9 E MAIN ST, ,26670,KRIS FLANIGAN CMT,SERVICE,MASSAGE THERAPY,,,,,,,,2009-09-30,,,,,,,
E MAIN,9,9 E MAIN ST, ,26670,"MADISON HOUSE, INC",RETAIL,FURNITURE/HOME INTERIORS,2002-01-01,2003-01-30,2003-12-19,2004-12-20,2005-12-29,2006-12-27,2007-12-26,2008-12-24,2009-12-24,2010-12-27,2011-12-28,,,,
E MAIN,9,9 E MAIN ST, ,26670,MAIN STREET OVEREASY,FOOD SERVICE,RESTAURANT,2002-02-06,2003-01-31,2004-02-13,2004-12-27,2006-01-03,2006-12-28,2007-12-31,2009-01-02,2010-01-08,2010-12-29,2011-12-29,2012-12-24,2013-12-20,2014-12-11,2016-01-12
E MAIN,9,9 E MAIN ST, ,26670,NEXT STEP,RETAIL,CONSIGNMENT,,,,,,,,,2010-02-26,,,,,,
E MAIN,9,9 E MAIN ST, ,26670,SASSY SISTERS,RETAIL,OTHER,,,,,,,,,,,2012-09-11,2012-12-26,2013-12-19,2014-12-11,2015-12-08
E MAIN,9,9 E MAIN ST, ,26670,"THIRSTY EAR, THE",RETAIL,ELECTRONIC/ELECTRIC SALES,2002-01-01,2003-02-10,2004-01-08,2005-01-18,2006-01-23,2007-02-26,2008-06-11,,,,,,,,
E MAIN,10,10 E MAIN ST, ,100000,BETTER BODY FITNESS OF MT INC,RETAIL,OTHER,,,,2006-01-12,2006-01-17,2006-12-26,2008-01-02,2008-12-24,2009-12-24,,,,,,
E MAIN,10,10 E MAIN ST, ,100000,"BOZEMAN CAMERA & REPAIR,INC",RETAIL,ELECTRONIC/ELECTRIC SALES,,,,,,,,,,,,,2014-02-07,2014-12-10,2015-12-21
E MAIN,10,10 E MAIN ST, ,100000,"BOZEMAN CAMERA & REPAIR,INC",SERVICE,MAINTENANCE/REPAIR SVCS,2002-01-02,2003-01-16,2003-12-17,2004-12-17,2005-12-28,2007-01-02,2008-01-09,2008-12-23,2010-01-28,2010-12-30,2011-12-21,2012-12-18,,,
E MAIN,10,10 E MAIN ST, ,100000,COSMICA INC,RETAIL,CLOTHING AND/OR SHOES,,,,,,,2008-08-19,2008-12-30,2009-12-22,2011-01-04,2012-01-06,2013-01-02,2013-12-18,2015-01-05,2015-12-18
E MAIN,10,10 E MAIN ST, ,100000,ELIZABETH & CO,RETAIL,CLOTHING AND/OR SHOES,2002-10-31,2003-01-24,2003-12-17,2004-12-17,2006-01-10,2007-02-20,2008-02-26,2009-02-23,2010-04-16,2010-12-30,,,,,
E MAIN,11,11 E MAIN ST, ,26610,BAKER ACCOUNTING,SERVICE,BOOKKEEPING,2002-01-07,2003-01-31,2003-12-17,2004-12-16,,,,,,,,,,,
E MAIN,11,11 E MAIN ST, ,26610,BODY IN BALANCE PILATES-INACTIVE,SERVICE,PERSONAL FITNESS,,2003-10-14,2003-12-29,2004-12-22,2008-05-21,2007-12-31,,,,,,,,,
E MAIN,11,11 E MAIN ST, ,26610,BOZEMAN WATCH COMPANY,RETAIL,JEWELRY,,,,,,,,2009-06-17,2010-01-04,2011-04-04,2012-01-03,2012-12-21,2014-05-09,2014-12-29,
E MAIN,11,11 E MAIN ST, ,26610,"LAST WIND-UP, THE",RETAIL,ANTIQUES,2002-01-02,2003-01-30,2004-01-08,2005-03-11,2006-01-05,2007-01-03,2008-01-08,2008-12-23,2010-01-06,2011-03-03,2011-12-29,2013-01-02,2013-12-18,2014-12-12,2016-01-04
E MAIN,11,11 E MAIN ST, ,26610,MASSAGE INNOVATIONS,SERVICE,MASSAGE THERAPY,,2003-12-02,,,,,,,,,,,,,
E MAIN,11,11 E MAIN ST, ,26610,"PALMQUIST CREATIVE, INC",SERVICE,MARKETING & ADVERTISING,2002-02-07,,,,,,,,,,,,,,
E MAIN,11,11 E MAIN ST, ,26610,WESTON FINANCIAL GROUP LLC,SERVICE,FINANCIAL/INVESTMENT,,,,,,,,,2010-11-17,2011-07-25,2012-03-02,,,,
E MAIN,12,12 E MAIN ST, ,101270,HEADROOM CORPORATION,RETAIL,ELECTRONIC/ELECTRIC SALES,,,,,,,,,,,,,2014-02-11,2015-03-02,2015-12-31
E MAIN,12,12 E MAIN ST, ,101270,LA TINGA BOZEMAN LLC,FOOD SERVICE,RESTAURANT,,,,2005-01-05,2006-08-24,2007-01-31,2008-01-31,2009-02-02,2010-04-19,2011-01-06,2011-12-20,2013-01-03,2013-12-17,2014-12-12,2016-02-01
E MAIN,12,12 E MAIN ST, ,101270,MOO CASA,FOOD SERVICE,RESTAURANT,,,2004-07-23,2005-04-07,2007-11-07,2007-11-08,,,,,,,,,
E MAIN,12,12 E MAIN ST, ,101270,WEEZIE WEAR,RETAIL,CLOTHING AND/OR SHOES,2002-02-21,2003-02-14,,,,,,,,,,,,,
E MAIN,16,16 E MAIN ST, ,102950,F-11 PHOTOGRAPHIC SUPPLIES,RETAIL,PHOTO SUPPLIES,2002-01-24,2003-02-14,2003-12-22,2005-01-10,2006-01-12,2007-01-11,2007-12-31,2009-01-20,2010-04-05,2011-02-04,2012-02-01,2013-02-20,2014-02-25,2014-12-26,2016-01-13
E MAIN,16,16 E MAIN ST, ,102950,NEW TOWN STYLE - INACTIVE,RETAIL,CLOTHING AND/OR SHOES,,,,,,,,2009-04-28,,,,,,,
E MAIN,17,17 E MAIN ST, ,26620,CATHERINE LANE INTERIORS,SERVICE,INTERIOR DESIGN,,2003-05-15,2004-01-08,2004-12-22,2005-12-30,2007-01-16,2008-02-15,2009-04-22,2010-03-04,2010-12-30,2012-02-28,2013-04-24,,,
E MAIN,17,17 E MAIN ST, ,26620,"HARTMAN-MOCKEL, INC",RETAIL,CLOTHING AND/OR SHOES,2002-02-13,,,,,,,,,,,,,,
E MAIN,17,17 E MAIN ST, ,26620,LITEN HUS OF BOZEMAN,RETAIL,SPECIALTY STORE,2002-01-01,2003-02-05,2003-12-30,2004-12-30,2006-02-14,2007-01-16,,,,,,,,,
E MAIN,17,17 E MAIN ST, ,26620,SUNDOG FINE ART LLC,RETAIL,ART STUDIOS & GALLERIES,,,,,,,,,,,,,2014-04-10,2014-12-18,2016-02-26
E MAIN,18,18 E MAIN ST, ,4940,"SPICE AND TEA EXCHANGE, THE",RETAIL,SPECIALTY STORE,,,,,,,,,,,,,,,2016-04-22
E MAIN,18,18 E MAIN ST, ,4940,"STYLON, WOMEN'S APPAREL",RETAIL,CLOTHING AND/OR SHOES,2002-01-04,2003-03-12,2003-12-23,2004-12-20,2005-12-27,2007-01-04,2007-12-20,2009-01-02,2009-12-22,2010-12-28,2011-12-22,2012-12-21,2013-12-18,2014-12-18,
E MAIN,20,20 E MAIN ST, ,80140,MAYARISING,SERVICE,OTHER,,,,,,,,,,,,,2014-04-10,2015-01-28,2016-01-05
E MAIN,23,23 E MAIN ST, ,26640,BOZEMAN ANGLER,RETAIL,SPORTS EQUIP/SPORTING GOODS,2002-02-04,2003-02-20,2004-02-17,2005-02-16,2006-02-16,2007-02-20,2008-02-19,2009-02-20,2010-02-16,2011-01-13,2012-01-05,2013-01-14,2014-01-15,2015-01-07,2016-01-27
E MAIN,27,27 E MAIN ST,UNIT A,139720,JANELLE LORE CPT,SERVICE,PERSONAL FITNESS,,,,,2006-12-31,,,,,,,,,,
E MAIN,27,27 E MAIN ST,UNIT A,139720,JESSICA SOWELL MASSAGE THERAPY,SERVICE,MASSAGE THERAPY,,,,2005-03-30,,,,,,,,,,,
E MAIN,27,27 E MAIN ST,UNIT A,139720,OUTBACK THERAPY,SERVICE,MASSAGE THERAPY,,,,2005-09-29,2005-12-30,,,,,,,,,,
E MAIN,27,27 E MAIN ST,UNIT B,139730,YOUR YOGA,SERVICE,HEALTH & BEAUTY,,,,,,,,,,2011-02-02,,,,,
E MAIN,27,27 E MAIN ST,UNIT D,26650,BIG SKY MATTRESS,RETAIL,FURNITURE/HOME INTERIORS,2002-01-01,,,,,,,,,,,,,,
E MAIN,27,27 E MAIN ST,UNIT D,26650,CROSSROADS,RETAIL,GIFTS & CARDS,2002-02-06,2003-03-07,2004-02-10,2005-02-09,2006-01-31,2007-01-30,2007-12-28,2009-02-03,2010-02-03,2011-02-02,2013-02-07,2012-02-07,2014-02-27,2015-01-27,2016-02-03
E MAIN,27,27 E MAIN ST,UNIT D,26650,SECOND LOOK CONSIGN GALLERY,RETAIL,ART STUDIOS & GALLERIES,,,2004-11-18,2005-08-03,,,,,,,,,,,
E MAIN,27,27 E MAIN ST,UNIT D,26650,VALENTINE FINE ART,RETAIL,ART STUDIOS & GALLERIES,,,2004-07-13,,,,,,,,,,,,
E MAIN,29,29 E MAIN ST, ,26660,DI AMA,RETAIL,GIFTS & CARDS,2002-02-13,,,,,,,,,,,,,,
E MAIN,35,35 E MAIN ST, ,88180,SCHNEE'S INC,RETAIL,SPORTS EQUIP/SPORTING GOODS,2002-02-06,2003-02-04,2004-01-29,2004-12-30,2006-02-27,2007-02-26,2008-02-19,2009-02-04,2010-01-26,2011-01-27,2012-01-30,2013-02-07,2014-02-03,2015-02-17,2016-02-02
E MAIN,36,36 E MAIN ST, ,94480,OWENHOUSE ACE HARDWARE CO,RETAIL,HARDWARE STORE,2002-02-13,2003-01-24,2004-01-02,2004-12-17,2006-01-10,2007-01-04,2007-12-24,2008-12-24,2009-12-23,2011-01-05,2011-12-20,2012-12-24,2013-12-26,2014-12-26,2015-12-21
E MAIN,37,37 E MAIN ST, ,105550,AIM MORTGAGE CORP,BANKS,MORTGAGE/ESCROW COMPANIES,2005-02-02,2005-02-02,2005-02-02,2005-02-02,,,,,,,,,,,
E MAIN,37,37 E MAIN ST, ,105550,E3 CONSULTING INC,SERVICE,CONSULTING,,,,,,,,2009-07-06,2010-02-11,,,,,,
E MAIN,37,37 E MAIN ST, ,105550,GROUP W INVESTMENT MANAGEMENT,SERVICE,FINANCIAL/INVESTMENT,,2003-05-15,2004-01-07,2005-01-03,2006-01-05,2007-01-17,2008-01-08,2009-01-13,2010-02-03,2011-01-10,2012-01-05,2013-01-02,2014-01-13,2015-01-21,2016-01-30
E MAIN,37,37 E MAIN ST, ,105550,REJUVENATION,SERVICE,MASSAGE THERAPY,,2003-12-10,2004-01-21,2005-01-20,2006-01-20,2007-01-04,,,,,,,,,
E MAIN,37,37 E MAIN ST, ,105550,SCHNEE'S CONTRACTING,CONTRACTORS,GENERAL,,,,,,,,,,,2012-02-24,,,,
E MAIN,40,40 E MAIN ST, ,100820,"JOHNS, KATHLEEN",SERVICE,CONSULTING,,,,,,,,,,2011-03-23,2011-12-29,,,,
E MAIN,40,40 E MAIN ST, ,100820,P & B CONSTRUCTION INC,CONTRACTORS,GENERAL,,,2004-07-07,2004-12-27,2005-12-30,2006-12-29,2008-01-10,2008-12-24,2010-01-07,2010-12-22,2011-12-28,,,,
E MAIN,44,44 E MAIN ST, ,60170,BITNAR ARCHITECTS,RETAIL,ART STUDIOS & GALLERIES,2002-01-10,2003-02-20,2003-12-19,2004-12-21,2005-12-28,2007-01-08,2008-01-07,,,,,,,,
E MAIN,44,44 E MAIN ST, ,60170,COMMUNITY FOOD CO-OP-DOWNTOWN,RETAIL,GROCERY STORE,,,,,,,,,,2011-04-20,2011-12-28,2012-12-20,2013-12-16,2014-12-11,2015-12-21
E MAIN,101,101 E MAIN ST, ,139650,SMARTECH CONSULTING INC,SERVICE,DRAFTING,,,,,,,2008-08-08,,,,,,,,
E MAIN,101,101 E MAIN ST,UNIT 1,146620,THINKONE CONSTRUCTION MGMT,CONTRACTORS,GENERAL,,,,,,,,,2010-06-08,2011-02-01,2011-12-28,2012-12-28,2013-12-13,2014-12-19,2015-12-24
E MAIN,101,101 E MAIN ST,UNIT 2,146630,COPPER LLC,FOOD SERVICE,RESTAURANT,,,,,,,,,,,,2013-05-16,2013-12-16,2015-10-08,2015-12-15
E MAIN,101,101 E MAIN ST,UNIT A,26690,FORTUNE PERSONNEL CONSULTANT,SERVICE,CONSULTING,2002-02-04,2003-02-10,2004-01-16,2005-02-24,2006-01-10,2007-01-16,2008-01-18,2009-01-15,2010-02-16,,,,,,
E MAIN,101,101 E MAIN ST,UNIT A,26690,GUADALAJARA MEXICAN RESTAURANT,FOOD SERVICE,RESTAURANT,,,,2005-06-22,2006-01-05,2007-01-03,,,,,,,,,
E MAIN,101,101 E MAIN ST,UNIT A,26690,LANGLAS & ASSOC-INACTIVE,CONTRACTORS,GENERAL,,,,2006-01-18,2006-05-09,2007-01-10,,,,,,,,,
E MAIN,101,101 E MAIN ST,UNIT A,26690,LOOIE'S DOWN UNDER/JADRA'S,FOOD SERVICE,RESTAURANT,2002-02-19,2003-02-10,2004-02-24,2005-02-25,2006-02-21,2007-02-01,2008-02-22,2009-02-19,2010-02-22,2011-02-01,,,,,
E MAIN,101,101 E MAIN ST,UNIT A,26690,MERIDIAN,RETAIL,CLOTHING AND/OR SHOES,2004-04-30,2004-04-30,2004-01-06,2004-12-22,2005-12-29,2007-02-02,2007-12-24,2009-01-06,2010-01-04,2010-12-30,2011-12-20,2012-12-24,2013-12-24,2014-12-15,2016-01-30
E MAIN,101,101 E MAIN ST,UNIT A,26690,RAIN,FOOD SERVICE,RESTAURANT,2002-02-19,2003-02-10,2004-02-24,,,,,,,,,,,,
E MAIN,101,101 E MAIN ST,UNIT A,26690,SWEET CHILI ASIAN BISTRO LLC,FOOD SERVICE,RESTAURANT,,,,,,,,,2010-06-14,2010-12-23,2011-12-19,2012-12-21,2013-12-16,2014-12-11,2015-12-16
E MAIN,101,101 E MAIN ST,UNIT G,207850,HALLMARK BUSINESS CONNECTIONS,SERVICE,COMPUTER CONSULTING/SYS DESIGN,,,,,,,,2009-07-23,2010-01-26,2011-02-07,2012-01-24,2013-01-24,2014-01-28,2015-02-05,
E MAIN,104,104 E MAIN ST, ,4870,BOCKHOLT LANDSCAPE ARCHITECTURE,SERVICE,COMPUTER CONSULTING/SYS DESIGN,,,,,,,,,,,,,,2015-03-11,2016-01-26
E MAIN,104,104 E MAIN ST, ,4870,BRENTWOOD SERVICES ADMINISTRATORS INC,SERVICE,OTHER,,,,,,,,,,,,,,2015-08-27,2016-01-15
E MAIN,104,104 E MAIN ST, ,4870,ED LEWIS CONSULTING,SERVICE,CONSULTING,,,,,,,,2009-05-15,2009-12-28,2010-12-29,2011-12-22,2013-01-02,2013-12-18,2014-12-15,2015-12-18
E MAIN,104,104 E MAIN ST, ,4870,HIGH COUNTRY FINCL STRATEGIES,SERVICE,FINANCIAL/INVESTMENT,2002-09-23,2003-02-14,2004-02-13,,,,,,,,,,,,
E MAIN,104,104 E MAIN ST, ,4870,MONTANA INVESTMENT ADVISORS,SERVICE,FINANCIAL/INVESTMENT,2002-01-02,2003-01-30,2004-01-09,2005-01-04,2006-01-05,2007-01-08,2008-01-07,2008-12-30,2009-12-31,2010-12-30,2012-01-04,2013-01-02,2014-01-06,2015-03-09,2015-12-22
E MAIN,104,104 E MAIN ST, ,4870,US BANK,BANKS,GENERAL,2002-01-18,2003-02-04,2004-01-20,2005-01-28,2006-01-20,2007-01-24,2008-01-17,2009-01-27,2010-01-04,2010-12-30,2011-12-28,2013-01-10,2013-12-20,2014-12-17,2016-03-03
E MAIN,104,104 E MAIN ST,UNIT 209,213320,"ARCHITECTS ALASKA, INC",SERVICE,OTHER,,,,,,,,,,,,,,,2016-03-08
E MAIN,104,104 E MAIN ST,UNIT 407,216630,ZMEDIA AGENCY,SERVICE,OTHER,,,,,,,,,,,2012-06-27,2013-03-08,2014-01-10,,
E MAIN,107,107 E MAIN ST, ,66330,"AXOLOTL CAD GROUP, INC",SERVICE,DRAFTING,2002-02-04,2003-01-23,2005-01-27,2005-01-27,2006-01-06,,,,,,,,,,
E MAIN,107,107 E MAIN ST, ,66330,DIGITAL MOXXY & FIT FROSTING,SERVICE,MARKETING & ADVERTISING,,,,,,,,,,2011-03-16,2012-02-15,2013-01-03,,,
E MAIN,107,107 E MAIN ST, ,66330,FLOWING FIBERS THRPTC MASSAGE,SERVICE,MASSAGE THERAPY,,2003-12-17,2004-03-03,2005-02-09,2006-01-10,2007-02-23,2008-02-11,2009-01-29,2010-03-30,,,,2014-01-27,2015-03-06,
E MAIN,107,107 E MAIN ST, ,66330,FLY FREE DESIGNS,RETAIL,JEWELRY,,,,,,,,,,2011-12-28,2012-01-31,,,,
E MAIN,107,107 E MAIN ST, ,66330,GREAT ROCKY MOUNTAIN TOY CO,RETAIL,TOY STORE,2002-01-02,2003-02-18,2004-02-10,2005-01-20,2006-07-25,2007-02-14,2008-02-11,2009-02-10,2010-03-02,2011-01-27,2011-12-30,2013-01-09,2014-01-15,2015-01-30,2016-01-05
E MAIN,107,107 E MAIN ST, ,66330,INTREPID LEARNING SOLUTIONS,SERVICE,CONSULTING,,,,,,,,2009-07-01,,,,,,,
E MAIN,107,107 E MAIN ST, ,94800,LA CHATELAINE CHOCOLAT CO #2,FOOD SERVICE,TAKEOUT,,,,,,,2008-12-05,2009-06-29,2010-02-16,2011-02-15,2012-01-26,2013-01-14,2014-01-13,2015-01-08,2016-01-04
E MAIN,107,107 E MAIN ST, ,94800,SILVER ANNIE'S,RETAIL,JEWELRY,2002-02-06,2003-02-14,2004-01-22,2005-03-09,2005-12-29,2007-01-08,2008-02-04,2009-02-27,2010-03-08,2011-01-28,2012-02-13,2012-12-19,2014-03-04,2014-12-11,2016-01-16
E MAIN,113,113 E MAIN ST, ,207550,JUNGHANS & SONS,RETAIL,OTHER,,,,,,,,2009-05-13,2010-03-09,2011-03-29,,,,,
E MAIN,115,115 E MAIN ST, ,89040,ETP INC DBA DAMSELFLY CLOTHING CO,RETAIL,CLOTHING AND/OR SHOES,,,,,,,,,,,2012-10-05,2013-07-12,2013-12-17,2015-01-05,2015-12-24
E MAIN,115,115 E MAIN ST, ,89040,"PHILLIPS BOOK STORE, INC",RETAIL,BOOKSTORE,2002-01-01,2003-02-04,2004-01-20,2005-02-02,2006-02-13,2007-01-16,2008-02-04,2009-03-16,2010-01-28,2011-03-14,2012-02-21,,,,
E MAIN,116,116 E MAIN ST, ,100340,SENORITAS SPECIALITY FOODS-INACTIVE,FOOD SERVICE,RESTAURANT,2002-02-04,2003-02-20,2004-02-24,2005-02-22,2006-01-06,2007-01-12,2008-02-07,2009-01-06,2010-02-09,2011-01-04,2012-02-22,2013-01-09,2014-02-18,2015-01-21,
E MAIN,117,117 E MAIN ST, ,26700,"CAROLE SISSON DESIGNS, INC",RETAIL,FURNITURE/HOME INTERIORS,2002-02-15,2003-02-04,2003-12-29,2004-12-28,2006-01-12,2007-01-11,2007-12-26,,,,,,,,
E MAIN,117,117 E MAIN ST, ,26700,ZOCALO COFFEE HOUSE,FOOD SERVICE,RESTAURANT,,,,,,,,,,,2012-06-18,2013-02-28,2014-01-14,2014-12-11,2015-12-15
E MAIN,118,118 E MAIN ST, ,4860,"BITTERROOT CAPITAL ADVISORS, LLC",SERVICE,FINANCIAL/INVESTMENT,2002-01-25,2003-02-04,2003-12-24,2005-01-10,2006-01-23,2007-01-23,2008-01-02,2009-01-16,2010-01-04,2011-02-07,2011-12-21,2013-01-11,2014-01-06,2014-12-26,2015-12-31
E MAIN,118,118 E MAIN ST, ,4860,BOZEMAN OPTICAL,SERVICE,OTHER,,,,,,,,,2010-04-30,,2012-02-21,2013-02-04,2014-01-16,2015-01-26,2016-02-02
E MAIN,118,118 E MAIN ST, ,4860,WILLIAMS CLOTHIER,RETAIL,CLOTHING AND/OR SHOES,,,2004-01-30,2004-12-16,2005-12-27,2006-12-26,2007-12-18,2008-12-22,,,,,,,
E MAIN,119,119 E MAIN ST, ,26730,MONTANA FISH COMPANY,FOOD SERVICE,TAKEOUT,,,,2005-07-22,2006-01-25,2007-01-02,2008-01-07,2009-06-18,2010-02-02,2011-04-18,,,,,
E MAIN,121,121 E MAIN ST, ,89030,INDULGENCE,RETAIL,COSMETIC & FRAGRANCE BOUTIQUE,2002-04-10,2003-06-11,2003-12-26,2005-02-01,2005-12-28,2006-12-22,2008-01-09,2008-12-30,2010-01-20,2011-01-10,2012-01-25,2013-02-15,2013-12-16,2015-01-12,2016-01-16
E MAIN,122,122 E MAIN ST, ,4850,DOWNTOWN ANTIQUES,RETAIL,ANTIQUES,2002-01-08,2003-01-30,2004-01-23,2005-01-25,2006-01-27,2007-02-08,2008-01-10,2008-12-24,2010-01-26,2011-02-03,2011-12-29,2013-01-22,2013-12-31,2014-12-11,2015-12-31
E MAIN,123,123 E MAIN ST, ,26710,CRYSTAL BAR RESTAURANT,FOOD SERVICE,RESTAURANT,2002-01-24,2003-03-21,2004-01-20,2005-04-20,2006-04-03,2006-12-27,2007-12-26,2008-12-24,2009-12-30,2011-01-03,2012-01-03,2012-12-24,2013-12-18,2014-12-19,2016-01-29
E MAIN,124,124 E MAIN ST, ,4840,SAWDUST DESIGN WERKS,SERVICE,DRAFTING,,,2004-09-02,,,,,,,,,,,,
E MAIN,124,124 E MAIN ST, ,4840,WESTERN FINE ART,RETAIL,ART STUDIOS & GALLERIES,,,,,2006-11-15,2007-02-09,2008-02-12,2009-02-11,2010-02-04,2011-01-18,2012-02-14,2013-02-11,2014-02-10,,
E MAIN,127,127 E MAIN ST, ,26720,"A. BANKS GALLERY, INC",SERVICE,OTHER,,,,,,,,,,,,2013-10-22,2013-12-24,2015-01-05,2016-01-16
E MAIN,127,127 E MAIN ST, ,26720,BELLISIMO BELLY,RETAIL,CLOTHING AND/OR SHOES,,2003-05-15,2003-12-24,2004-12-29,2006-02-13,2007-01-09,,,,,,,,,
E MAIN,127,127 E MAIN ST, ,26720,"FINE LINE, A",RETAIL,ART STUDIOS & GALLERIES,2002-01-02,2003-02-27,2004-01-21,,,,,,,,,,,,
E MAIN,128,128 E MAIN ST, ,89010,DAVIS DEVELOPMENT LLC,CONTRACTORS,GENERAL,,,,,2007-06-26,2007-07-03,2008-03-04,2009-01-06,2010-01-04,2011-02-08,2012-01-11,2013-02-04,2013-12-23,2015-08-10,2016-02-16
E MAIN,128,128 E MAIN ST, ,89010,"DAVIS, TORRES & ASSOCIATES",RETAIL,FURNITURE/HOME INTERIORS,2002-02-04,2003-02-10,2004-01-22,2005-01-18,2006-01-09,2007-01-19,2007-12-27,2009-05-19,,,,,,,
E MAIN,128,128 E MAIN ST, ,89010,MAIN STREET QUILTING COMPANY,RETAIL,ARTS & CRAFTS,2002-01-18,2003-01-13,2004-01-09,2005-01-05,2006-02-14,2007-07-26,2008-02-07,2009-02-11,2010-02-16,2011-02-08,2012-02-15,2013-02-12,2013-12-24,2015-03-30,2016-01-20
E MAIN,128,128 E MAIN ST, ,89010,OBERON,RETAIL,FURNITURE/HOME INTERIORS,2002-01-01,,,,,,,,,,,,,,
E MAIN,129,129 E MAIN ST, ,26740,OLD MAIN GALLERY/FRAME SHOPINC,RETAIL,ARTS & CRAFTS,2002-01-03,2003-03-12,2004-02-11,2005-01-26,2005-12-23,2007-02-14,2008-03-18,2009-02-09,2010-02-05,2011-01-10,2012-01-23,2013-01-02,2013-12-13,2014-12-15,2016-03-15
E MAIN,129,129 E MAIN ST, ,26740,SHOEFLY SHOES LLC,RETAIL,CLOTHING AND/OR SHOES,,2003-11-06,2004-02-11,2005-02-16,2006-02-21,2007-02-14,2008-07-17,2009-02-18,2010-04-01,2011-03-28,,,,,
E MAIN,131,131 E MAIN ST, ,26750,"REFLECTIONS, LLC",RETAIL,CLOTHING AND/OR SHOES,2002-02-22,2003-02-14,2004-02-13,2005-02-01,2006-01-03,2006-12-29,,,,,,,,,
E MAIN,131,131 E MAIN ST, ,139700,"MERINO STORE, LLC",RETAIL,CLOTHING AND/OR SHOES,,,,,,,2008-05-02,2009-06-03,,,,,,,
E MAIN,131,131 E MAIN ST, ,139700,OOH LA LA,RETAIL,CLOTHING AND/OR SHOES,,,,,,,2008-07-18,,,,,,,,
E MAIN,131,131 E MAIN ST, ,139700,RETCO INC DBA SHIRT OFF MY BACK,RETAIL,CLOTHING AND/OR SHOES,,,,,,,,,,,2012-07-30,2013-01-04,2013-12-31,,
E MAIN,131,131 E MAIN ST, ,139700,SHANNON GRADY NYGARD DESIGNS,SERVICE,INTERIOR DESIGN,,,,,,,,,,,,,,2015-02-12,2016-01-29
E MAIN,131,131 E MAIN ST, ,139700,SOLE MATE,RETAIL,CLOTHING AND/OR SHOES,,,,,,,,,,2011-09-26,,,,,
E MAIN,132,132 E MAIN ST, ,209930,DARI RASA TRUNK SHOW LLC,RETAIL,JEWELRY,,,,,,,,,2010-05-31,2010-12-27,2011-12-29,2013-01-08,2013-12-19,2014-12-11,2016-01-07
E MAIN,133,133 E MAIN ST,UNIT A,161600,"THOMAS NYGARD, INC",RETAIL,ART STUDIOS & GALLERIES,2002-01-23,2003-01-13,2004-02-11,2005-02-16,2006-02-21,2007-01-19,2008-02-22,2009-01-21,2010-02-01,2011-02-02,2011-12-22,2012-12-19,2014-02-18,2015-02-17,2016-02-18
E MAIN,134,134 E MAIN ST, ,100320,ALTITUDE GALLERY,RETAIL,ART STUDIOS & GALLERIES,,,,,,2008-01-29,2008-01-29,2009-02-02,2010-02-01,2011-01-07,2012-01-04,2012-12-20,2013-12-20,2014-12-19,2016-01-30
E MAIN,134,134 E MAIN ST, ,100320,AZTECA,FOOD SERVICE,RESTAURANT,2002-02-13,2003-02-12,2004-02-20,,,,,,,,,,,,
E MAIN,136,136 E MAIN ST, ,100310,BOBBY - LEE'S,RETAIL,GIFTS & CARDS,2002-02-21,2003-02-20,2004-03-15,,,,,,,,,,,,
E MAIN,137,137 E MAIN ST, ,66340,"BANGTAIL BIKE & SKI, INC",RETAIL,BICYCLE SHOP,2002-02-13,2003-02-18,2004-02-09,2005-02-09,2006-02-06,2007-02-12,2008-02-06,2009-08-27,2010-02-05,2011-01-03,2012-01-09,2013-01-07,2013-12-24,2015-03-02,2016-02-01
E MAIN,137,137 E MAIN ST, ,66340,MAIN STREET ARMY NAVY,RETAIL,SPORTS EQUIP/SPORTING GOODS,2002-02-06,2003-02-20,2004-02-03,2005-05-05,2006-01-23,2007-02-20,2008-01-31,,,,,,,,
E MAIN,140,140 E MAIN ST, ,60000,BLACKBIRD KITCHEN,FOOD SERVICE,RESTAURANT,,,,,,,,2009-10-09,2010-04-06,2011-02-18,2012-01-19,2012-12-26,2014-01-16,2014-12-26,2015-12-23
E MAIN,140,140 E MAIN ST, ,60000,"CHOCOLATE MOOSE, LLC",RETAIL,GIFTS & CARDS,,,,,,,,2009-07-28,2009-12-23,2011-01-03,2012-02-02,2013-01-16,2013-12-13,2014-12-19,
E MAIN,140,140 E MAIN ST, ,60000,"CHOCOLATE MOOSE, LLC",RETAIL,SPECIALTY FOOD,,,,,,,,,,,,,,,2016-03-16
E MAIN,140,140 E MAIN ST, ,60000,RICE THAI CUISINE,FOOD SERVICE,RESTAURANT,,,,,,,,,,,2012-12-19,2012-12-26,2013-12-12,2014-12-15,2015-12-14
E MAIN,140,140 E MAIN ST, ,60000,SLOPPY DAWGS,FOOD SERVICE,RESTAURANT,,,,,,,,,,2011-04-22,,,,,
E MAIN,201,201 E MAIN ST, ,30860,ROCKY MOUNTAIN FURNITURE/ACC,RETAIL,FURNITURE/HOME INTERIORS,2002-01-02,,,,,,,,,,,,,,
E MAIN,201,201 E MAIN ST, ,30860,ROCKY MOUNTAIN RUG GALLERY,RETAIL,FURNITURE/HOME INTERIORS,2002-02-04,2003-03-21,2004-01-20,2005-01-27,2006-03-02,2007-02-07,2008-02-11,2009-02-02,2010-01-04,2011-01-10,2011-12-28,2013-01-11,2013-12-19,2015-04-06,2016-03-02
E MAIN,208,208 E MAIN ST, ,3140,FIRST SECURITY BANK,BANKS,GENERAL,2002-01-09,2003-01-27,2004-01-12,2005-01-07,2006-01-06,2006-12-29,2008-01-04,2008-12-26,2010-01-08,2011-01-03,2012-01-06,2013-01-04,2013-12-23,2014-12-15,2016-01-11
E MAIN,208,208 E MAIN ST, ,3140,PRIMEVEST FINANCIAL SERVICES,SERVICE,FINANCIAL/INVESTMENT,2002-01-24,,,,,,,,,,,,,,
E MAIN,209,209 E MAIN ST, ,30870,PICKLE BARREL/DOWNTOWN,FOOD SERVICE,RESTAURANT,2002-02-13,2003-01-22,2004-01-27,2005-02-11,2006-01-26,2007-02-22,2007-12-28,2009-02-10,,,,,,,
E MAIN,211,211 E MAIN ST, ,30880,FIN ON MAIN,FOOD SERVICE,RESTAURANT,,,,,,,,,,,,,2014-05-21,2015-03-11,
E MAIN,211,211 E MAIN ST, ,30880,HIGH COUNTRY GRILL,FOOD SERVICE,RESTAURANT,,,,,,,,,,,2012-03-29,2013-01-03,2014-01-03,2015-02-09,2016-01-16
E MAIN,211,211 E MAIN ST, ,30880,LOFT SPA LLC,SERVICE,HEALTH & BEAUTY,,,,,,2007-07-31,2008-01-07,2009-01-02,2009-12-31,2011-01-07,2012-01-05,2012-12-24,2013-12-12,2014-12-18,2016-01-05
E MAIN,211,211 E MAIN ST, ,30880,"SANTA FE RED'S-2, INC",FOOD SERVICE,RESTAURANT,,,,,,,,,,,2011-06-07,2013-02-14,,,
E MAIN,211,211 E MAIN ST, ,30880,"SIDELINE GRILL, LLC",FOOD SERVICE,RESTAURANT,,,,,,,,,,2011-06-07,,,,,
E MAIN,211,211 E MAIN ST, ,30880,"TBI BROKERS, INC",SERVICE,OTHER,,,,,,,,,,2015-07-24,2012-02-13,2013-03-15,2013-12-26,2015-07-24,2016-01-30
E MAIN,222,222 E MAIN ST, ,89150,"FOUR SEASONS TRAVEL, INC",RETAIL,TRAVEL AGENCY,2002-02-22,2003-02-12,2004-02-24,2005-02-23,2006-03-23,,,,,,,,,,
E MAIN,222,222 E MAIN ST, ,89150,NORTHFORK FINANCIAL LLC,SERVICE,FINANCIAL/INVESTMENT,,,,,,,,,,,2012-01-09,2014-01-07,2014-02-18,2014-12-11,2016-01-25
E MAIN,225,225 E MAIN ST, ,30910,MIKEY'S NOTSOFAMOUS BARBEQUE,FOOD SERVICE,RESTAURANT,,,,,,,,,,,,2013-12-03,2014-01-08,,
E MAIN,229,229 E MAIN ST, ,30930,JONAE'S HANDCRAFTED CHOCOLATES,RETAIL,SPECIALTY FOOD,2002-01-02,2003-07-31,,,,,,,,,,,,,
E MAIN,232,232 E MAIN ST, ,106210,MACKENZIE RIVER PIZZA COMPANY,FOOD SERVICE,RESTAURANT,2002-01-28,2003-01-27,2003-12-19,2004-12-23,2006-01-09,2007-01-16,2008-03-20,2008-12-24,2009-12-23,2011-01-10,2011-12-27,2013-01-16,2014-01-24,2014-12-26,2016-01-05
E MAIN,234,234 E MAIN ST, ,2440,BLACK SHEEP CUSTOM LEATHER INC,RETAIL,CLOTHING AND/OR SHOES,,,,,,,2008-07-17,2009-01-14,2010-01-11,2011-01-12,2012-01-26,2012-12-19,2013-12-24,2014-12-12,2015-12-23
E MAIN,234,234 E MAIN ST, ,2440,CARTER'S,SERVICE,MAINTENANCE/REPAIR SVCS,2002-01-14,2003-02-14,2004-01-16,2005-01-03,2006-02-07,2007-07-26,2008-02-13,2009-02-11,2010-02-16,2011-02-14,2012-02-15,2013-02-05,2014-01-08,2015-01-13,2016-02-01
E MAIN,234,234 E MAIN ST, ,2440,R O BROOKS CUSTOM LEATHER SHOP,RETAIL,SPECIALTY STORE,2002-01-01,2003-05-19,2003-12-31,2005-05-17,2006-04-12,2007-03-09,,,,,,,,,
E MAIN,237,237 E MAIN ST, ,30950,MONTANA GIFT CORRAL,RETAIL,GIFTS & CARDS,2002-01-02,2003-02-04,2004-01-09,2005-01-10,2006-01-03,2007-01-03,2008-01-02,2008-12-22,2009-12-28,2011-01-04,2011-12-27,2012-12-24,2013-12-24,2014-12-18,2015-12-21
E MAIN,238,238 E MAIN ST, ,100530,BOZEMAN MASSAGE THERAPY LLC,SERVICE,MASSAGE THERAPY,,,,,,,,,2010-09-24,2011-02-15,,,,,
E MAIN,240,240 E MAIN ST, ,2380,BARREL MOUNTAINEERING,RETAIL,CLOTHING AND/OR SHOES,,,,,,,,,2010-02-17,2011-03-03,,,,,
E MAIN,240,240 E MAIN ST, ,2380,CASSO TATTOOS,SERVICE,TATTOOING,,,,,2007-07-26,,,,,,,,,,
E MAIN,240,240 E MAIN ST, ,2380,DIGITAL TROUT,SERVICE,OTHER,,,,,,,,,,,2012-05-04,,,,
E MAIN,240,240 E MAIN ST, ,2380,REFLECTIONS INC,RETAIL,CLOTHING AND/OR SHOES,,,,,,,,,,,,2013-08-28,2013-12-26,2014-12-11,2016-03-02
E MAIN,241,241 E MAIN ST, ,30960,"ARTCRAFT PRINTERS, INC",SERVICE,PRINTING,2002-01-02,2003-01-23,2004-01-13,2005-01-18,2006-01-17,2007-01-11,2008-01-02,2009-02-12,2010-01-20,2011-01-12,2011-12-30,2013-01-02,2014-03-26,2014-12-18,2015-12-18
E MAIN,241,241 E MAIN ST, ,30960,OPEN RANGE FOOD & DRINK,FOOD SERVICE,RESTAURANT,,,,,,,,,,,,2013-10-10,2013-12-13,2014-12-19,2015-12-18
E MAIN,242,242 E MAIN ST, ,207540,FIVE ON BLACK BRAZILIAN GRILL,FOOD SERVICE,RESTAURANT,,,,,,,,,,,,,,2015-07-14,2016-01-16
E MAIN,242,242 E MAIN ST, ,207540,PHO REAL LLC,FOOD SERVICE,RESTAURANT,,,,,,,,,,,2012-11-26,,,,
E MAIN,246,246 E MAIN ST, ,101320,BOZEMAN'S TATTOO ALLEY LLC,SERVICE,TATTOOING,,,,,2006-12-31,,2008-09-02,2009-08-20,2009-12-28,2011-01-12,2012-01-04,2013-01-15,2013-12-26,2014-12-18,2016-01-12
E MAIN,246,246 E MAIN ST, ,101320,BR INC DBA THE PITA PIT,FOOD SERVICE,RESTAURANT,,,2004-10-29,2004-12-17,2005-12-27,2006-12-22,2007-12-20,2008-12-31,2009-12-31,2010-12-28,2011-12-22,2012-12-19,2013-12-17,2014-12-19,2015-12-22
E MAIN,246,246 E MAIN ST, ,101320,HOME PAGE CAFE',FOOD SERVICE,RESTAURANT,,,,2005-06-08,2006-01-23,2007-01-02,2008-02-11,2009-02-12,2010-03-01,2011-01-19,,,,,
E MAIN,246,246 E MAIN ST, ,101320,TRUE BLUE ART,SERVICE,TATTOOING,,,,,2007-07-25,,,,,,,,,,
E MAIN,307,307 E MAIN ST, ,30970,LA PA INC,FOOD SERVICE,RESTAURANT,,,,,,,,,,2011-08-16,,,,,
E MAIN,307,307 E MAIN ST, ,30970,RENAISSANCE CENTRE OF DESIGN,RETAIL,FURNITURE/HOME INTERIORS,2001-01-31,,,,,,,,,,,,,,
E MAIN,307,307 E MAIN ST, ,30970,VYRUKA,RETAIL,CLOTHING AND/OR SHOES,,,,2005-06-27,2006-01-20,2007-02-20,2008-02-12,,,,,,,,
E MAIN,307,307 E MAIN ST, ,30970,YURASHAK ENTERPRISES LLC DBA BAR IX,FOOD SERVICE,RESTAURANT,,,,,,,,,,,,2013-02-22,2014-04-04,2015-01-06,2016-01-07
E MAIN,308,308 E MAIN ST, ,99760,SHEILA K HRASKY FINE ART @ ART,RETAIL,ARTS & CRAFTS,2002-01-22,2003-02-04,2004-01-09,2005-01-14,2006-02-15,2007-02-15,2008-02-05,,,,,,,,
E MAIN,310,310 E MAIN ST, ,2320,"INDIAN UPRISING GALLERY, LLC",RETAIL,ART STUDIOS & GALLERIES,2002-02-04,2003-02-18,2004-02-13,2005-02-16,2006-02-21,2007-01-16,2008-01-08,2009-01-26,2010-02-01,2011-02-09,2012-01-30,2012-12-19,,,
E MAIN,310,310 E MAIN ST, ,2320,NOVA CAFE,FOOD SERVICE,RESTAURANT,2002-03-11,2003-01-31,2004-04-23,2005-06-28,2006-01-09,2007-01-03,2007-12-31,2009-01-12,2009-12-23,2010-12-28,2012-01-03,2012-12-20,2013-12-19,2014-12-16,2016-01-13
E MAIN,310,310 E MAIN ST,UNIT 4,121010,TAMARACK DESIGNS,CONTRACTORS,LAWN CARE & LANDSCAPING,2002-05-30,2003-05-30,2004-02-23,,,,,,,,,,,,
E MAIN,313,313 E MAIN ST, ,30980,SUGAR SHACK,RETAIL,CLOTHING AND/OR SHOES,,,,2006-10-20,2006-10-20,2007-01-16,2008-01-10,,,,,,,,
E MAIN,315,315 E MAIN ST, ,100350,SAVANT CLAIR GALERIE,RETAIL,ART STUDIOS & GALLERIES,2002-02-08,2003-01-23,,,,,,,,,,,,,
E MAIN,315,315 E MAIN ST, ,100350,VINO PER TUTTI,RETAIL,GROCERY STORE,,,,,,2007-11-09,2008-01-22,2009-02-17,2010-02-01,2013-02-08,2013-02-08,2013-08-26,2013-12-18,2014-12-31,2015-12-31
E MAIN,316,316 E MAIN ST, ,89500,"EAGLES, THE FRATERNAL ORDER OF",FOOD SERVICE,RESTAURANT,2002-01-01,2003-01-31,2004-01-09,2004-12-27,2006-01-03,2007-01-03,2007-12-24,2009-02-12,2009-12-31,2011-01-03,2011-12-23,2012-12-24,2013-12-13,2014-12-29,2016-01-05
E MAIN,321,321 E MAIN ST, ,147360,ANDRUS CONSULTING,SERVICE,CONSULTING,,,,,,,,,,2011-08-25,2012-01-12,2013-01-17,2014-02-12,2015-01-21,2016-01-20
E MAIN,321,321 E MAIN ST, ,147360,ANNE SHERWOOD PHOTOGRAPHY,SERVICE,OTHER,,,,,,,,2009-12-02,2010-01-28,2011-03-30,2012-01-10,2013-01-02,2014-01-30,2014-12-29,2016-01-08
E MAIN,321,321 E MAIN ST, ,147360,BEADIFUL,SERVICE,MASSAGE THERAPY,,,,,,2007-07-30,,,,,,,,,
E MAIN,321,321 E MAIN ST, ,147360,BRIGH'S WELL,SERVICE,OTHER,,,,,,,,,,,2012-04-26,,,,
E MAIN,321,321 E MAIN ST, ,147360,CIVIC CONSULTING,SERVICE,CONSULTING,,,,,,,,2009-10-06,2010-04-15,2011-01-26,,,,,
E MAIN,321,321 E MAIN ST, ,147360,COSTA,SERVICE,OTHER,,,,,,,,2009-08-24,2010-01-20,2011-01-11,2012-01-25,2013-01-08,2014-02-18,2015-02-24,2016-02-23
E MAIN,321,321 E MAIN ST, ,147360,DARWIN DESIGN CLOTHING CO LLC,RETAIL,CLOTHING AND/OR SHOES,,,,,,,2008-08-05,2009-02-10,,,,,,,
E MAIN,321,321 E MAIN ST, ,147360,EVOLVE HOMES LLC,CONTRACTORS,GENERAL,,,,,,,,,,,,,,2015-07-14,2016-03-15
E MAIN,321,321 E MAIN ST, ,147360,GLOVER CONSULTING GROUP,SERVICE,CONSULTING,,,,,,,,2009-07-28,,,,,,,
E MAIN,321,321 E MAIN ST, ,147360,"GUGGENHEIM, DANIEL J",SERVICE,COMPUTER CONSULTING/SYS DESIGN,,,,,,,,2009-10-13,2010-02-09,2011-01-19,2012-01-31,,,,
E MAIN,321,321 E MAIN ST, ,147360,"JAMES M CLARK, CONSULTANT",SERVICE,CONSULTING,,,,2005-03-07,2006-01-05,2006-12-21,2007-12-19,2008-12-29,2009-12-28,,,,,,
E MAIN,321,321 E MAIN ST, ,147360,"LAURA HOEHN, ATTORNEY AT LAW, PLLC",SERVICE,OTHER,,,,,,,,,,,,,2014-03-10,2015-01-08,2016-01-26
E MAIN,321,321 E MAIN ST, ,147360,THE BOZEMAN,CONTRACTORS,GENERAL,,,,,,,,,,2011-06-21,2012-02-07,,,,
E MAIN,321,321 E MAIN ST, ,147360,VERITAS WINE CONSULTING LLC,SERVICE,OTHER,,,,,,,,2009-10-14,2010-01-28,2011-02-28,2012-01-19,2013-02-05,2014-02-14,2015-02-11,2016-02-16
E MAIN,321,321 E MAIN ST, ,147360,WENDEL DESIGNS LLC,SERVICE,OTHER,,,,,,,,2009-08-17,,,,,,,
E MAIN,321,321 E MAIN ST,UNIT 1D,66510,A LIFE OF GRACE,SERVICE,HEALTH CARE,,,,,,,,,2010-06-04,2011-02-22,2012-01-25,,,,
E MAIN,321,321 E MAIN ST,UNIT 1D,66510,A#1 MASSAGE,SERVICE,MASSAGE THERAPY,2002-04-02,2003-04-25,,,,,,,,,,,,,
E MAIN,321,321 E MAIN ST,UNIT 1D,66510,ARCHER CONSTRUCTION/REMODELING,CONTRACTORS,GENERAL,2002-04-04,2003-01-31,2004-01-30,2004-12-22,2006-01-04,2007-01-23,2008-12-09,2009-01-12,2010-01-12,2011-01-26,2012-01-27,2012-12-24,2014-03-03,2014-12-19,2016-01-13
E MAIN,321,321 E MAIN ST,UNIT 1D,66510,BC/OC OUTDOOR CONSULTING,SERVICE,MARKETING & ADVERTISING,2002-02-04,2003-01-31,2004-01-08,2005-03-01,2006-02-13,2007-01-11,2008-01-08,2009-01-02,2010-01-13,2011-04-27,,,,,
E MAIN,321,321 E MAIN ST,UNIT 1D,66510,EAST END STUDIO,RETAIL,BEAUTY & HEALTH,2002-02-07,2003-01-31,,,,,,,,,,,,,
E MAIN,321,321 E MAIN ST,UNIT 1D,66510,FOCUS MASSAGE THERAPY,SERVICE,MASSAGE THERAPY,,,,,2007-01-25,2007-07-31,2008-07-17,2009-01-23,2009-12-28,,2012-03-23,2012-12-21,2014-01-03,2015-01-08,2016-01-05
E MAIN,321,321 E MAIN ST,UNIT 1D,66510,HARVEST MOON,SERVICE,MASSAGE THERAPY,2001-01-01,2003-01-24,2004-01-23,,,,,,,,,,,,
E MAIN,321,321 E MAIN ST,UNIT 1D,66510,HILL ROD & GUN CO,RETAIL,SPORTS EQUIP/SPORTING GOODS,2002-01-01,2003-02-12,2004-02-25,2005-01-12,2006-01-18,2007-01-25,2008-02-07,2009-01-30,2010-03-03,2011-02-10,2012-02-21,2013-03-05,2014-03-06,2015-02-19,2016-04-28
E MAIN,321,321 E MAIN ST,UNIT 1D,66510,HIP ON MAIN,RETAIL,BEAUTY & HEALTH,2002-02-04,2003-01-15,,,,,,,,,,,,,
E MAIN,321,321 E MAIN ST,UNIT 1D,66510,MAINSTREAM RESTORATION INC,SERVICE,CONSULTING,,,2004-07-23,2005-01-13,2006-03-13,2007-01-23,2008-01-14,2009-01-07,2009-12-29,2010-12-28,,,,,
E MAIN,321,321 E MAIN ST,UNIT 1D,66510,"NTH DEGREE ANALYTICS, LLC",SERVICE,RESEARCH,2002-04-23,2003-02-04,2004-01-29,2005-01-12,2006-02-01,2007-01-22,2008-01-10,2009-07-23,2010-01-19,2011-01-16,2012-01-05,2013-01-08,2014-01-15,2015-02-23,2016-01-26
E MAIN,321,321 E MAIN ST,UNIT 1D,66510,OH SUSANNA'S JEWELRY,RETAIL,JEWELRY,2002-02-21,2003-03-21,2003-12-19,,,,,,,,,,,,
E MAIN,321,321 E MAIN ST,UNIT 1D,66510,OLD BOZEMAN BEADS & GIFTS,RETAIL,JEWELRY,2002-01-18,2003-02-24,2004-02-18,2005-02-18,2006-02-28,2007-02-05,2008-01-17,2009-01-23,2010-01-19,2011-01-16,2012-01-20,2013-01-23,2013-12-27,,
E MAIN,321,321 E MAIN ST,UNIT 1D,66510,SANDHOLM DEVELOPMENT GROUP,CONTRACTORS,GENERAL,,,2004-05-13,2005-03-03,2006-03-13,2007-01-05,,,,,,,,,
E MAIN,321,321 E MAIN ST,UNIT 1D,66510,SOBY'S CAFE INC,FOOD SERVICE,RESTAURANT,2002-02-22,2003-01-31,2004-01-22,2005-02-14,2006-01-10,2007-01-08,2008-06-18,2008-12-23,2010-01-14,2011-01-04,2012-02-07,2012-12-26,2013-12-18,2014-12-19,
E MAIN,321,321 E MAIN ST,UNIT 1D,66510,SUPERIOR NORTHWEST DEVELOPMENT,CONTRACTORS,GENERAL,2002-01-18,2003-03-07,2004-02-13,,,,,,,,,,,,
E MAIN,321,321 E MAIN ST,UNIT 1D,66510,"WENDY BIANCHINI, LCPC",SERVICE,CONSULTING,,2003-05-15,2004-01-13,2004-12-22,2005-12-29,2007-01-04,2008-01-07,2008-12-29,2010-01-13,2011-01-24,2011-12-21,2012-12-18,2013-12-18,2014-12-15,2015-12-23
E MAIN,321,321 E MAIN ST,UNIT 1F,139880,TARANTINO'S PIZZERIA,FOOD SERVICE,RESTAURANT,,,,,,2007-05-07,2008-01-08,2009-02-27,2010-01-19,2011-01-11,2011-12-28,2012-12-28,2013-12-31,2014-12-31,2016-02-01
E MAIN,321,321 E MAIN ST,UNIT 201,222150,MANTRA,SERVICE,HEALTH CARE,,,,,,,,,,,,,,2015-04-16,2016-01-28
E MAIN,321,321 E MAIN ST,UNIT 3C,140070,WILLOW MASSAGE,SERVICE,MASSAGE THERAPY,,,,,,,,2009-09-08,2010-02-11,2011-01-21,2012-03-19,2013-02-11,2014-01-31,,
E MAIN,321,321 E MAIN ST,UNIT 424,218690,RADIO JEWELS BROADCASTING NETWORK LLC,BROADCASTING,RADIO & TV,,,,,,,,,,,,2013-07-09,,,
E MAIN,402,402 E MAIN ST,UNIT 1,140680,TOWNSHEND'S BOZEMAN TEAHOUSE,FOOD SERVICE,RESTAURANT,,,,,,,,,,,,,2014-04-08,2014-12-15,2015-12-14
E MAIN,402,402 E MAIN ST,UNIT 2,2290,"GEM GALLERY, THE",RETAIL,JEWELRY,2002-01-01,2003-01-31,2003-12-19,2004-12-20,2005-12-29,2007-01-02,2007-12-19,2008-12-24,2009-12-28,2010-12-29,2011-12-21,2012-12-19,2013-12-16,2014-12-18,2016-04-18
E MAIN,402,402 E MAIN ST,UNIT 2,2290,NORTHWESTERN ENERGY,SERVICE,OTHER,,,,,,,,2009-09-30,2010-06-04,,,,,,
E MAIN,402,402 E MAIN ST,UNIT 2,2290,T CHARBONNEAU'S TRADING CO,RETAIL,CLOTHING AND/OR SHOES,2002-02-21,2003-01-31,2004-01-06,2005-01-24,2006-03-09,2007-01-16,2008-01-02,,,,,,,,
E MAIN,424,424 E MAIN ST, ,156340,ALLEGIANT BUILDING MANAGEMENT LLC,SERVICE,OTHER,,,,,,,,,,,,,2014-03-04,2015-01-26,2016-01-20
E MAIN,424,424 E MAIN ST, ,156340,DEE-O-GEE,RETAIL,PETS & SUPPLIES/FEED STORES,,,,,,,,,,,,,2014-05-21,2014-12-12,2016-01-07
E MAIN,424,424 E MAIN ST, ,156340,FISCHER TILE & STONE,RETAIL,BUILDING MATERIALS,,,,,,,,,,,,,,2015-05-26,
E MAIN,424,424 E MAIN ST, ,156340,"NESTED NOOK, LLC",RETAIL,FURNITURE/HOME INTERIORS,,,,,,,,,,,,2013-09-23,,,
E MAIN,424,424 E MAIN ST,UNIT A,132290,"PERSPECTIVES, INC",RETAIL,GIFTS & CARDS,2002-01-22,2003-02-11,2004-03-02,2004-12-20,2006-01-04,2007-02-06,2008-07-24,2009-01-22,2010-02-01,2011-01-03,2012-01-11,2013-01-04,2014-01-24,2015-02-17,2016-01-29
E MAIN,424,424 E MAIN ST,UNIT A,132290,"SUGAR BOUTIQUE INC, DBA SUGAR",RETAIL,CLOTHING AND/OR SHOES,,,2004-12-27,2005-01-10,2006-01-04,2007-01-04,2008-05-05,2008-12-23,2009-12-23,2010-12-27,2011-12-19,2012-12-18,,,
E MAIN,424,424 E MAIN ST,UNIT B,132300,BLUE SKY DEVELOPMENT/GOBUILD,SERVICE,OTHER,,,,,2007-07-31,,,,,,,,,,
E MAIN,424,424 E MAIN ST,UNIT B-2,1870,GOBUILD/BLUE SKY DEVELOPMENT,CONTRACTORS,GENERAL,,,,,,2007-01-22,2008-03-10,,,,,,,,
E MAIN,424,424 E MAIN ST,UNIT B-2,1870,LILLY LU INC,RETAIL,CLOTHING AND/OR SHOES,2002-01-04,2003-01-30,2003-12-17,2004-12-21,2006-01-06,2007-01-10,2007-12-31,2009-02-11,2010-02-26,2011-01-07,2012-01-03,2012-12-26,2013-12-24,2014-12-26,2015-12-21
E MAIN,424,424 E MAIN ST,UNIT B-2,1870,M LAURO,RETAIL,LINGERIE STORE,2002-02-21,2003-04-25,,,,,,,,,,,,,
E MAIN,424,424 E MAIN ST,UNIT B-2,1870,SAGE SPA SALON,SERVICE,HEALTH & BEAUTY,,2003-06-23,2004-02-12,2005-01-04,2006-02-02,2007-01-04,2008-01-02,2008-12-31,2010-01-19,2011-01-13,2012-01-11,2013-01-02,2013-12-17,2014-12-26,2015-12-24
E MAIN,424,424 E MAIN ST,UNIT C,132310,"EDWARD D. JONES & CO, L.P.",SERVICE,FINANCIAL/INVESTMENT,,,,,,,,,,2011-01-20,2012-03-19,2013-01-07,2014-01-07,2014-12-29,2016-02-26
E MAIN,425,425 E MAIN ST, ,29880,DESIGN DOMAIN,SERVICE,OTHER,,,,,,,2008-07-02,,,,,,,,
E MAIN,435,435 E MAIN ST, ,29910,ART BEAT GALLERY AND GIFTS,RETAIL,ARTS & CRAFTS,,,,,,,,,,,,,,2015-06-30,
E MAIN,435,435 E MAIN ST, ,29910,GREYWOOD INTERIORS,SERVICE,INTERIOR DESIGN,,,,,,,,2009-02-23,2010-06-23,,,,,,
E MAIN,435,435 E MAIN ST, ,29910,MCPHIE CABINETRY,RETAIL,FURNITURE/HOME INTERIORS,2002-01-18,2003-01-24,2004-02-19,2004-12-27,2005-12-23,2006-12-29,2008-01-08,2009-01-09,2009-12-28,2010-12-30,2012-01-04,2012-12-24,2013-12-19,2014-12-26,2015-12-22
E MAIN,435,435 E MAIN ST, ,29910,THIRSTY LAKE TILEWORKS,SERVICE,OTHER,,,,,,,,,2011-01-31,2011-02-09,2011-12-23,2012-12-18,2013-12-23,2014-12-26,2015-12-23
E MAIN,437,437 E MAIN ST, ,29960,"AUTO BODY CENTER, INC",SERVICE,AUTO & RV REPAIR/MAINT,2002-01-02,2003-01-30,2004-01-05,2004-12-21,2005-12-27,2006-12-29,2008-08-21,2009-01-05,2009-12-21,2010-12-28,2011-12-21,2012-12-21,2014-05-22,2014-12-19,2015-12-16
E MAIN,443,443 E MAIN ST, ,30000,WESTERN CAFE,FOOD SERVICE,RESTAURANT,2002-02-21,2003-02-14,2004-01-29,2005-02-16,2006-02-08,2007-02-14,2008-01-15,2008-12-22,2009-12-21,2011-01-03,2012-01-04,2012-12-24,2013-12-17,2014-12-23,2016-01-29
E MAIN,448,448 E MAIN ST, ,1790,ELEVATE CYCLING LLC,SERVICE,HEALTH & BEAUTY,,,,,,,,,,2011-09-20,,,,,
E MAIN,448,448 E MAIN ST, ,1790,FLEET FEET SPORTS OF BOZEMAN,RETAIL,CLOTHING AND/OR SHOES,,2003-12-02,2003-12-23,2004-12-30,2006-01-03,2007-01-02,2008-01-23,2009-04-10,2010-02-18,,,,,,
E MAIN,448,448 E MAIN ST, ,1790,SUCCESS COMMUNICATIONS,SERVICE,MARKETING & ADVERTISING,2002-01-01,2003-01-30,2004-05-11,2005-02-04,2006-02-21,2007-01-03,2008-02-19,,,,,,,,
E MAIN,448,448 E MAIN ST,STE 2C,217220,WEBFILINGS LLC,SERVICE,COMPUTER CONSULTING/SYS DESIGN,,,,,,,,,,,2012-03-21,2013-04-10,2014-01-21,,
E MAIN,448,448 E MAIN ST,STE A ,123740,ADDIE PENROD,SERVICE,MASSAGE THERAPY,,,,2005-10-17,2006-02-14,2007-01-04,2008-01-02,2009-01-05,2010-02-05,2011-01-03,2012-01-06,,,,
E MAIN,448,448 E MAIN ST,STE A ,123740,AMANDA WEDOW CMT,SERVICE,MASSAGE THERAPY,,,2004-12-27,2005-02-11,2006-02-13,,,,,,,,,,
E MAIN,448,448 E MAIN ST,STE A ,123740,BOZEMAN RUNNING COMPANY LLC,RETAIL,CLOTHING AND/OR SHOES,,,,,,,,,2010-07-22,2011-01-05,2012-02-28,2013-03-04,2014-01-29,2014-12-15,2016-01-16
E MAIN,448,448 E MAIN ST,STE A ,123740,DEW DROP INC DBA DEW DROP IN,SERVICE,CHILDCARE,,,,,2006-02-28,2007-03-02,2008-01-17,2009-01-14,2010-02-17,,,,,,
E MAIN,448,448 E MAIN ST,STE A ,123740,SPORTS & ORTHOPEDIC MASSAGE,SERVICE,MASSAGE THERAPY,,,2004-03-24,2005-11-01,2005-12-29,2007-02-14,2008-02-11,2009-02-23,2010-01-06,2011-02-07,2011-12-22,2013-01-16,,,
E MAIN,448,448 E MAIN ST,UNIT 2A,211670,TOLSTEDT ARCHITECTS PLLC,SERVICE,OTHER,,,,,,,,,,2011-06-08,2011-12-22,2013-02-22,2013-12-18,2015-01-05,
E MAIN,448,448 E MAIN ST,UNIT DB-1,131970,DEW DROP RESALE SHOPPE,RETAIL,CLOTHING AND/OR SHOES,,,,,,,,2009-06-29,2010-02-17,,,,,,
E MAIN,451,451 E MAIN ST, ,30080,GALLERY SIGNS,RETAIL,SIGNS,2002-01-01,2003-01-14,2006-05-24,2006-05-24,2006-05-24,,,,,,,,,,
E MAIN,451,451 E MAIN ST, ,30080,"GARAGE, THE",FOOD SERVICE,RESTAURANT,2002-03-14,2003-02-10,2005-10-25,2005-01-25,2006-02-06,2007-01-09,2008-01-11,2009-02-23,2010-02-16,2011-02-22,2012-02-13,2012-12-21,2013-12-24,2014-12-23,2015-12-21
E MAIN,451,451 E MAIN ST, ,30080,GERTY,RETAIL,CLOTHING AND/OR SHOES,,,,,2006-11-15,2007-01-05,2008-02-04,2009-01-02,2009-12-31,2011-02-15,,,,,
E MAIN,501,501 E MAIN ST, ,100360,AMERICAN BANK EAST,BANKS,GENERAL,2002-01-09,2003-01-30,2003-12-18,2004-12-20,2005-12-29,2007-01-02,2007-12-27,2008-12-24,2009-12-23,2011-01-03,2011-12-28,2012-12-27,2013-12-18,2014-12-18,2015-12-31
E MAIN,502,502 E MAIN ST, ,1780,"BRENCE'S SERVICE, INC",RETAIL,GAS STATION/FUEL SALES,2002-02-13,2003-01-31,2003-12-19,2004-12-21,2006-01-10,2007-01-11,2008-01-10,2008-12-22,2009-12-22,2011-01-11,2011-12-19,2012-12-21,2013-12-23,2014-12-11,2016-01-05
E MAIN,512,512 E MAIN ST, ,1770,"TIRE-RAMA, DBA THE TIRE GUYS",RETAIL,TIRE STORE,2002-01-08,2003-01-23,2003-12-26,2004-12-27,2006-01-12,2007-01-08,2008-01-11,2008-12-29,2010-01-04,2011-01-04,2012-01-06,2012-12-27,2013-12-23,2015-01-21,2015-12-18
E MAIN,529,529 E MAIN ST, ,31830,D A DAVIDSON & COMPANY,SERVICE,FINANCIAL/INVESTMENT,2002-01-02,2003-02-10,2003-12-30,2004-12-27,2006-01-03,2007-01-04,2007-12-27,2008-12-24,2009-12-29,2011-01-05,2012-01-09,2013-03-08,2013-12-19,2014-12-19,2016-01-07
E MAIN,536,536 E MAIN ST, ,820,PACIFICA OF BOZEMAN INC DBA,RETAIL,OTHER,,2003-11-25,2003-12-23,2005-01-03,2005-12-28,2006-12-27,,,,,,,,,
E MAIN,538,538 E MAIN ST, ,119360,SOUCIE HAIR SALON,RETAIL,BEAUTY & HEALTH,2002-02-13,2003-01-30,2003-12-24,2005-06-27,2006-01-04,2007-07-07,2008-07-14,,,,,,,,
E MAIN,539,539 E MAIN ST, ,31910,MUSIC VILLA,RETAIL,MUSICAL INSTRUMENTS,2002-01-02,2003-02-04,2003-12-24,2004-12-20,2005-12-29,2007-01-30,2008-02-13,2009-01-13,2010-01-05,2011-03-02,2012-02-13,2013-01-25,2014-02-12,2015-02-23,2016-02-18
E MAIN,544,544 E MAIN ST, ,94580,HEEB'S EAST MAIN GROCERY,RETAIL,GROCERY STORE,2002-01-01,2003-02-10,2003-12-18,2004-12-27,2006-01-05,2006-12-29,2008-01-15,2008-12-24,2010-07-22,2011-01-10,2011-12-21,2013-01-02,2014-01-08,2014-12-29,2015-12-23
E MAIN,544,544 E MAIN ST, ,94580,WESTERN DRUG,RETAIL,DRUG STORE,2002-02-04,2003-02-20,2004-01-30,2005-02-01,2006-01-11,2007-01-17,2008-01-25,2009-01-07,2010-02-12,2011-01-13,2012-01-05,2013-01-10,2014-02-07,2015-02-17,2016-01-29
E MAIN,549,549 E MAIN ST, ,31950,WORLD OF COLORS DBA PAINT POT,RETAIL,PAINT STORE,2002-01-02,2003-02-04,2004-01-12,2004-12-17,2006-01-06,2007-01-04,2008-02-11,2009-01-09,2010-01-04,2011-01-10,2011-12-28,2013-01-11,2013-12-19,2015-04-06,2016-02-25
E MAIN,608,608 E MAIN ST, ,810,EMPIRE BUILDING MATERIALS,RETAIL,BUILDING MATERIALS,2002-01-12,2003-02-14,2004-01-15,2005-01-11,2006-02-13,2007-02-12,2008-02-12,2009-02-11,2010-02-11,2010-12-28,2012-02-02,2012-12-24,2014-01-09,2015-01-21,2016-01-29
E MAIN,611,611 E MAIN ST, ,77160,MONTANA ALE WORKS,FOOD SERVICE,RESTAURANT,2002-01-28,2003-01-27,2003-12-19,2004-12-23,2006-01-09,2007-01-04,2007-12-28,2008-12-26,2009-12-29,2011-01-06,2012-02-16,2013-01-10,2013-12-18,2014-12-19,2016-01-04
E MAIN,612,612 E MAIN ST, ,790,AMANDA MARTIN CMT,SERVICE,MASSAGE THERAPY,,,,,,,2008-04-03,,,,,,,,
E MAIN,612,612 E MAIN ST, ,790,CINDY SMITH REHABILITATION AID,SERVICE,HEALTH CARE,2002-03-01,2003-02-14,,,,,,,,,,,,,
E MAIN,612,612 E MAIN ST, ,790,CMS OT SERVICES,SERVICE,PHYSICAL THERAPY,2003-03-11,2003-05-07,2003-12-31,,,,,,,,,,,,
E MAIN,612,612 E MAIN ST, ,790,EPIPHANY WEIGHT LOSS & FITNESS,SERVICE,HEALTH CARE,,,2004-01-30,,,,,,,,,,,,
E MAIN,612,612 E MAIN ST, ,790,FIT FLOW PILATES/BODY BALANCE,SERVICE,HEALTH & BEAUTY,,2003-11-07,,,,,,,,,,,,,
E MAIN,612,612 E MAIN ST, ,790,FIT FLOW PILATES/BODY BALANCE,SERVICE,PERSONAL FITNESS,,2003-11-17,2004-09-01,2005-01-12,2006-01-19,2007-01-10,2008-03-12,2009-02-02,,,,,,,
E MAIN,612,612 E MAIN ST, ,790,FOCUS PILATES,SERVICE,HEALTH & BEAUTY,,,,,,,2008-04-25,2008-12-29,2010-03-16,2011-02-02,,,,,
E MAIN,612,612 E MAIN ST, ,790,NATURAL GLOW AND MASSAGE,SERVICE,MASSAGE THERAPY,,,,,,,2008-07-03,,,,,,,,
E MAIN,612,612 E MAIN ST, ,790,NURTURING NATURE THERAPEUTIC,SERVICE,MASSAGE THERAPY,,,,,2007-07-31,2007-08-16,,,,,,,,,
E MAIN,612,612 E MAIN ST, ,790,PEACE TREE HEALING CENTER,SERVICE,OTHER,,,,2005-08-01,,,,,,,,,,,
E MAIN,612,612 E MAIN ST, ,790,"PHEBE COOK, RN, CMT",SERVICE,MASSAGE THERAPY,2002-04-10,2003-01-30,,,,,,,,,,,,,
E MAIN,612,612 E MAIN ST, ,790,"SHERI SIMKINS, PT, PCS",SERVICE,PHYSICAL THERAPY,2002-03-14,2003-03-17,2003-12-31,,,,,,,,,,,,
E MAIN,612,612 E MAIN ST, ,790,TOR PILATES,SERVICE,PERSONAL FITNESS,,,,2005-10-26,2006-03-30,2007-01-24,2008-04-17,,,,,,,,
E MAIN,626,626 E MAIN ST, ,117770,CITY OF BOZEMAN-LIBRARY,CONTRACTORS,GENERAL,,,,2005-05-06,2006-01-31,2006-12-19,2008-01-02,2008-12-16,2009-12-16,2010-12-16,2012-04-25,2012-12-10,2013-11-15,2014-12-04,2015-12-14
E MAIN,626,626 E MAIN ST, ,117770,LINDLEY PERK,FOOD SERVICE,RESTAURANT,,,,,,,2008-12-02,2009-04-27,2010-01-05,2011-01-07,2011-12-22,2013-01-15,2014-01-02,2014-12-18,2016-02-09
E MAIN,702,702 E MAIN ST, ,780,"ATTIC, THE",RETAIL,FURNITURE/HOME INTERIORS,2002-01-02,2003-01-14,2004-01-02,,,,,,,,,,,,
E MAIN,702,702 E MAIN ST, ,780,EAST MAIN TRADING COMPANY,RETAIL,ANTIQUES,2002-01-14,2003-08-15,2004-01-15,2005-02-09,2006-01-03,2007-01-16,2007-12-27,2009-01-02,2009-12-31,2010-12-30,2011-12-29,2012-12-20,2013-12-13,2014-12-17,2015-12-21
E MAIN,702,702 E MAIN ST, ,780,"PHILLIPS, LEE",CONTRACTORS,ROOFING,,,,,,,,,,2011-09-14,,,,,
E MAIN,712,712 E MAIN ST, ,770,SWEEPERS VAC SHOP LLC,RETAIL,OTHER,,,,,,,2008-05-01,2008-12-22,2010-03-05,2011-02-14,,,,,
E MAIN,712,712 E MAIN ST, ,770,"VAC SHACK II, THE",RETAIL,APPLIANCE STORE,2002-02-08,2003-01-31,2004-01-27,2004-12-21,2006-01-04,2007-01-08,,,,,,,,,
E MAIN,716,716 E MAIN ST, ,66300,ROCKY MOUNTAIN RV AUTO/SERVICE,RETAIL,AUTO & RV,2002-01-01,2003-02-04,2003-12-16,2004-12-17,2006-02-06,,,,,,,,,,
E MAIN,777,777 E MAIN ST, ,83300,CHARLIE'S,FOOD SERVICE,RESTAURANT,2002-01-24,2003-01-27,2003-12-29,2005-08-01,2006-03-02,2007-02-14,,,,,,,,,
E MAIN,777,777 E MAIN ST, ,83300,"COWLICKS, HAIRCUTS FOR KIDS",RETAIL,BEAUTY & HEALTH,,,,,,,,2010-01-05,2010-01-20,2011-01-19,2012-01-18,2012-12-18,2013-12-19,2014-12-19,2016-02-17
E MAIN,777,777 E MAIN ST, ,83300,GALLATIN COFFEE COMPANY INC,FOOD SERVICE,RESTAURANT,2002-03-08,2003-02-20,2004-01-22,2005-02-04,2006-02-14,2007-02-14,2008-02-14,2009-02-20,2009-12-29,2011-01-04,2012-01-23,2013-01-02,2014-01-15,2015-01-12,2016-01-05
E MAIN,777,777 E MAIN ST, ,83300,LLAMA LLAMA BOOKS LLC,RETAIL,BOOKSTORE,,,,,,2008-07-03,2008-07-09,2008-12-22,,,,,,,
E MAIN,777,777 E MAIN ST, ,83300,PEARSON DESIGN GROUP INC,SERVICE,INTERIOR DESIGN,,,,,,2007-07-31,2008-01-03,2009-01-08,2009-12-30,2011-01-07,2012-01-09,2012-12-21,2013-12-16,2014-12-11,2016-01-05
E MAIN,777,777 E MAIN ST, ,83300,PURPLE MOOSE & WILDFLOWERS MER,RETAIL,CLOTHING AND/OR SHOES,2002-07-16,2003-01-30,,,,,,,,,,,,,
E MAIN,777,777 E MAIN ST, ,83300,SACAGAWEA,SERVICE,OTHER,,,,,,,,,,,,2013-12-19,2013-12-27,,
E MAIN,777,777 E MAIN ST, ,83300,SKY FEDERAL CREDIT UNION,BANKS,CREDIT UNIONS,,,2004-10-20,2005-01-05,2006-01-18,2007-01-04,2008-01-03,2009-01-05,2010-01-05,2011-01-16,2011-12-22,2013-01-02,2014-01-03,2015-01-15,2016-01-26
E MAIN,777,777 E MAIN ST, ,83300,TURABI RUG GALLERY,RETAIL,ART STUDIOS & GALLERIES,,,,,,,,,,,,,,2015-03-11,
E MAIN,777,777 E MAIN ST,UNIT 101,218730,BLUEBIRD MEDICAL SUPPLY,RETAIL,MEDICAL SUPPLIES,,,,,,,,,,,,2013-02-20,2013-12-20,2014-12-18,2015-12-21
E MENDENHALL,5,5 E MENDENHALL ST, ,27000,STRAIGHTAWAY MOTORS,RETAIL,AUTO & RV,2002-01-01,2003-01-24,2003-12-19,2004-12-17,2005-12-28,2006-12-27,2007-12-20,2008-12-22,2009-12-23,2010-12-22,2011-12-20,2012-12-18,2013-12-13,2014-12-11,2015-12-18
E MENDENHALL,25,25 E MENDENHALL ST, ,28470,FIRST NORTHERN MORTGAGE CORP,BANKS,MORTGAGE/ESCROW COMPANIES,,,,2005-04-11,2006-01-23,2007-01-08,2008-01-30,2009-02-05,2010-02-12,,,,,,
E MENDENHALL,25,25 E MENDENHALL ST, ,28470,QWIK WAY DENT,SERVICE,OTHER,,,,,,,,,2010-07-23,,,,,,
E MENDENHALL,26,26 E MENDENHALL ST, ,145800,MJ FITNESS LLC,SERVICE,OTHER,,,,,,,2008-10-07,2008-12-29,2010-03-11,,,,,,
E MENDENHALL,26,26 E MENDENHALL ST, ,145800,TEN SPEED/MASSIVE STUDIOS LLC,SERVICE,MARKETING & ADVERTISING,2002-02-15,2003-02-03,2003-12-17,2005-06-08,2006-01-05,2007-07-31,2007-12-28,2009-05-13,2009-12-30,2010-12-29,2012-01-06,2013-01-09,2014-01-24,2015-03-02,2016-02-02
E MENDENHALL,30,30 E MENDENHALL ST, ,145810,LMRWORKS,SERVICE,OTHER,,,,,,,,,2010-03-23,2011-04-26,,,,,
E MENDENHALL,34,34 E MENDENHALL ST, ,207160,PURE BARRE BOZEMAN,SERVICE,OTHER,,,,,,,,,,,2012-06-12,2012-12-24,2014-01-08,2014-12-26,2016-01-29
E MENDENHALL,111,111 E MENDENHALL ST, ,28540,LIL' SHERPA JAVA,FOOD SERVICE,RESTAURANT,2002-02-07,2003-02-20,2004-01-22,2005-02-04,2006-02-14,2007-02-14,2008-02-14,2009-01-08,2010-02-12,2011-02-15,2012-01-12,,,,
E MENDENHALL,111,111 E MENDENHALL ST, ,28540,"RIDGE DOWNTOWN, THE",SERVICE,PERSONAL FITNESS,2002-01-18,2003-01-31,2003-12-31,2004-12-29,2006-01-04,2007-01-10,2008-01-02,2009-01-05,2009-12-23,2011-01-03,2011-12-27,2013-01-04,2014-01-02,2014-12-19,2015-12-23
E MENDENHALL,201,201 E MENDENHALL ST, ,86970,ALPHAGRAPHICS BOZEMAN,SERVICE,PRINTING,2002-03-05,2003-03-13,2004-02-13,2004-12-21,2005-12-29,2007-01-02,2008-01-30,2009-02-09,2010-01-04,2011-01-03,2012-01-09,2013-01-11,2014-01-17,2015-01-07,2016-01-16
E MENDENHALL,221,221 E MENDENHALL ST, ,30830,BRIDGER COMPUTER GURUS INC,SERVICE,COMPUTER ASSISTANCE & REPAIR,,2003-05-15,2004-02-24,2005-02-18,2006-02-13,,,,,,,,,,
E MENDENHALL,221,221 E MENDENHALL ST, ,30830,EXECUTIVE SERVICES,SERVICE,MAILING/PACKING,2002-01-02,2003-01-30,2004-01-13,2004-12-20,2006-01-30,2006-12-27,2007-12-31,2009-01-30,2009-12-29,2011-01-16,2012-01-12,2013-01-14,2014-01-13,2015-08-14,2015-12-16
E MENDENHALL,225,225 E MENDENHALL ST, ,30340,"BOZEMAN ABSTRACT, INC &",BANKS,MORTGAGE/ESCROW COMPANIES,2002-01-01,2003-03-04,,,,,,,,,,,,,
E MENDENHALL,225,225 E MENDENHALL ST, ,30340,HIGH COUNTRY PRESSURE WASHING LLC,SERVICE,OUTSIDE SERVICES,,,,,,,,,,,2012-07-11,,,,
E MENDENHALL,232,232 E MENDENHALL ST, ,30840,ELLE SALON,RETAIL,BEAUTY & HEALTH,,,,,,2007-08-29,,,,,,,,,
E MENDENHALL,232,232 E MENDENHALL ST, ,30840,PEARL,RETAIL,BEAUTY & HEALTH,,,,,,2008-01-02,2008-02-13,,,,,,,,
E MENDENHALL,317,317 E MENDENHALL ST, ,30370,FRESCO CAFE,FOOD SERVICE,TAKEOUT,2002-02-21,2003-02-18,2004-02-18,2005-02-16,2006-02-03,2007-01-04,2007-12-20,2009-01-07,2010-01-06,2011-01-19,2012-01-04,2012-12-28,2014-01-08,2014-12-15,2015-12-21
E MENDENHALL,317,317 E MENDENHALL ST, ,30370,HAVEN INTERIOR DESIGN INC,SERVICE,INTERIOR DESIGN,,,,,,2007-07-31,2008-01-16,2009-02-02,2010-02-08,2011-02-02,2012-01-09,2013-01-11,2014-02-07,2015-01-12,2015-12-21
E MENDENHALL,317,317 E MENDENHALL ST, ,30370,SIERRA DECOR,RETAIL,FURNITURE/HOME INTERIORS,,2003-06-19,2003-12-24,,,,,,,,,,,,
E MENDENHALL,319,319 E MENDENHALL ST, ,100240,BIRDWALK PRESS-INACTIVE,SERVICE,PRINTING,,,,,,,,,,,,,2014-11-21,,
E MENDENHALL,319,319 E MENDENHALL ST, ,100240,LOKKEN PRINTING COMPANY,SERVICE,PRINTING,2002-02-26,2003-03-13,2004-03-11,2005-04-06,2006-03-01,2007-03-13,2008-01-31,2009-03-26,2010-03-15,2011-02-23,2012-08-14,2013-03-12,2014-01-13,,
E MENDENHALL,321,321 E MENDENHALL ST, ,217300,BOZEMAN TAPROOM & FILL STATION,FOOD SERVICE,RESTAURANT,,,,,,,,,,,,,,,2016-02-03
E MENDENHALL,438,438 E MENDENHALL ST, ,67230,RENEW LLC,SERVICE,MASSAGE THERAPY,,,,,,,,,,,,2014-01-30,2014-02-18,2015-02-10,2016-02-11
E MENDENHALL,511,511 E MENDENHALL ST, ,31800,"SKOVRON, STEPHANIE",SERVICE,HEALTH CARE,,,2004-08-10,,,,,,,,,,,,
E MENDENHALL,533,533 E MENDENHALL ST, ,32080,KENT INTERIORS,SERVICE,INTERIOR DESIGN,2002-01-01,2003-02-04,2004-01-12,2004-12-21,2006-01-10,2007-01-05,2007-12-24,2009-01-15,2010-02-16,2011-01-06,2012-01-06,2013-01-31,2013-12-13,2015-02-02,
E MENDENHALL,541,541 E MENDENHALL ST, ,32090,HEALING ART'S CENTRE,SERVICE,HEALTH CARE,,,,,,,,,,,,,,2015-01-22,
E MENDENHALL,544,544 E MENDENHALL ST, ,103370,J & V RESTAURANT SUPPLY/REFRIG,WHOLESALE,GENERIC,2002-02-21,2003-02-10,2004-03-03,2005-01-12,2006-02-13,2007-02-15,2008-02-11,2009-02-13,2010-02-11,2011-03-25,2012-03-01,2013-02-15,2014-02-18,2015-02-13,2016-02-09
E MENDENHALL,548,548 E MENDENHALL ST, ,32040,WESTERN PLUMBING OF BOZEMAN,CONTRACTORS,PLUMBING,2002-01-01,2003-03-13,2004-01-12,2004-12-17,2006-01-31,2007-01-09,2008-01-02,2009-02-17,2009-12-16,2011-01-12,2012-04-25,2013-01-17,2013-12-31,2015-02-17,2015-12-16
E OLIVE,10,10 E OLIVE ST, ,4000,DRY FLY LLC,CONTRACTORS,GENERAL,,,,,,,,2009-04-22,2010-06-02,2011-01-07,2012-03-14,2013-01-02,2013-12-17,2015-02-27,2015-12-21
E OLIVE,20,20 E OLIVE ST, ,2970,CITY OF BOZEMAN-BLDG INSPECT,CONTRACTORS,GENERAL,,,,2005-03-24,2006-01-31,2006-12-19,2008-01-02,2008-12-16,2009-12-16,2010-12-16,2012-04-25,2012-12-10,2013-11-15,2014-12-04,2015-12-14
E OLIVE,120,120 E OLIVE ST, ,5250,KESTREL DESIGN,SERVICE,OTHER,,,,2005-01-26,2006-02-07,2007-01-10,,,,,,,,,
E OLIVE,121,121 E OLIVE ST, ,5230,BITTERROOT STAINED GLASS,RETAIL,ARTS & CRAFTS,2002-02-04,2003-02-07,2004-01-27,2004-12-28,2006-01-17,2007-01-23,2008-01-11,2009-01-15,2010-02-02,,,,,,
N BLACK,31,31 N BLACK AVE, ,207960,"THINKTANK DESIGN GROUP, INC",SERVICE,INTERIOR DESIGN,2002-07-09,2003-02-04,2004-01-06,2005-01-10,2006-04-04,2007-01-10,2008-03-05,2009-03-19,2010-01-06,2011-02-03,2012-01-20,,,,
N BLACK,112,112 N BLACK AVE, ,101060,"CORBAN NETWORKS, INC",SERVICE,COMMUNICATIONS,2002-02-26,2003-02-10,2004-02-20,2005-01-21,2006-01-13,,,,,,,,,,
N BLACK,116,116 N BLACK AVE, ,27960,"TOM'S ALIGNMENT CENTER, INC",SERVICE,AUTO & RV REPAIR/MAINT,2002-01-02,2003-01-16,2003-12-18,2004-12-20,2006-01-04,2007-01-05,2007-12-18,2008-12-19,2010-01-05,2010-12-28,2011-12-20,2012-12-18,2013-12-13,2014-12-11,2015-12-18
N BLACK,122,122 N BLACK AVE, ,101400,BODY THERAPY STUDIO,SERVICE,MASSAGE THERAPY,2002-01-08,2003-02-04,2003-12-16,2004-12-30,2005-12-30,2007-01-04,2008-01-09,2009-01-05,2009-12-22,2011-01-04,2012-01-04,2013-01-04,2014-01-09,2014-12-23,2015-12-23
N BLACK,124,124 N BLACK AVE, ,27970,BROWN HOUND ELECTRIC,CONTRACTORS,ELECTRICAL,,,,2005-07-12,2006-01-31,2007-01-09,2008-01-02,2008-12-16,2009-12-16,2010-12-17,2012-04-25,2012-12-10,2013-11-15,2014-11-20,2015-12-09
N BLACK,124,124 N BLACK AVE, ,27970,"LANGAKER, TRICIA",SERVICE,MASSAGE THERAPY,,,,,2006-11-02,2007-02-22,2008-02-27,2009-01-08,2010-03-30,,,,,,
N BLACK,210,210 N BLACK AVE, ,28000,J & K RECYCLERS INC,RETAIL,STEEL & RECYCLING,2002-01-01,2003-01-27,2003-12-18,2005-01-18,2006-01-13,2007-01-16,2008-01-28,2008-12-24,2010-01-13,2011-01-19,2012-02-22,2013-01-18,2014-01-21,2015-02-24,2015-12-21
N BLACK,301,301 N BLACK AVE, ,157620,FREE AIR BICYCLES,SERVICE,OTHER,,,,,,,,,,,2012-02-24,2013-01-18,,,
N BOZEMAN,34,34 N BOZEMAN AVE, ,66500,BOZEMAN VINTAGE CONSIGNMENT STORE,RETAIL,CLOTHING AND/OR SHOES,,,,,,,,,,,,,2015-03-24,,
N BOZEMAN,34,34 N BOZEMAN AVE, ,66500,CASPIAN. LLC,FOOD SERVICE,RESTAURANT,,,,,,,,,,,,,,2015-08-26,
N BOZEMAN,115,115 N BOZEMAN AVE, ,66490,DAVE'S SUSHI--OFF MAIN,FOOD SERVICE,RESTAURANT,,2003-06-19,2003-12-23,2004-12-16,2005-12-28,2006-12-29,2007-12-24,2008-12-29,2009-12-24,2010-12-30,2011-12-29,2012-12-19,2014-01-27,2015-01-05,2015-12-18
N BOZEMAN,122,122 N BOZEMAN AVE, ,30510,FLATT CHEDDAR,SERVICE,OTHER,,,,,,,,,,,,2013-10-23,2014-04-11,,
N BOZEMAN,201,201 N BOZEMAN AVE, ,30780,WILDFLOWER MTN CABIN/GUEST HSE,SERVICE,OTHER,2002-01-01,2003-02-26,2004-01-06,,,,,,,,,,,,
N CHURCH,10,10 N CHURCH AVE, ,67280,BOODLES RESTAURANT,FOOD SERVICE,RESTAURANT,2002-01-22,2003-01-27,2004-01-22,2004-12-17,2006-01-04,2007-01-16,2007-12-24,2008-12-26,,2011-12-02,,,,,
N CHURCH,14,14 N CHURCH AVE, ,97230,14 NORTH,FOOD SERVICE,RESTAURANT,,,,,,,,,,,,2013-05-10,2013-12-17,2014-12-10,2016-01-22
N CHURCH,14,14 N CHURCH AVE, ,97230,SPANISH PEAKS ITALIAN CAFFE,FOOD SERVICE,RESTAURANT,2002-02-07,,,,,,,,,,,,,,
N CHURCH,37,37 N CHURCH AVE, ,30130,ANTIQUE ASYLUM,RETAIL,ANTIQUES,,,,2005-05-12,2006-01-19,,,,,,,,,,
N GRAND,16,16 N GRAND AVE, ,100880,ABOUT FACES,SERVICE,TATTOOING,,,2004-03-16,,,,,,,,,,,,
N GRAND,16,16 N GRAND AVE, ,100880,CATWALK,RETAIL,CONSIGNMENT,2002-01-25,2003-02-04,2004-01-07,2004-12-22,2005-12-27,2006-12-26,2007-12-20,2009-01-12,2010-02-16,2011-10-07,2012-01-05,2013-02-15,2014-01-24,2015-02-02,2016-04-27
N GRAND,16,16 N GRAND AVE, ,100880,"ELKHORN BARBER, PLLC",RETAIL,BEAUTY & HEALTH,,,,,,,,,,,,,,,2016-01-29
N GRAND,16,16 N GRAND AVE, ,100880,MONTANA BODYCARE & DAY SPA,SERVICE,HEALTH & BEAUTY,2002-01-08,2003-01-30,2004-01-02,2005-02-18,2006-02-24,,,,,,,,,,
N GRAND,103,103 N GRAND AVE, ,25770,"JAMES SAVAGE MFTG, JEWELER",RETAIL,JEWELRY,2002-01-02,2003-01-30,2004-01-14,2005-01-07,2006-02-14,2007-01-25,2008-01-03,2009-01-06,2010-01-29,2011-01-27,2012-01-04,2012-12-28,2013-12-16,2014-12-11,2015-12-16
N GRAND,121,121 N GRAND AVE, ,25750,"BOZEMAN BAKERS, LLC",FOOD SERVICE,CATERING,2002-11-20,2003-01-23,,,,,,,,,,,,,
N GRAND,121,121 N GRAND AVE, ,25750,GO DOGS GO LLC,SERVICE,OTHER,,,,,2006-10-23,2007-02-20,2008-02-25,2009-02-17,2009-12-22,2011-02-15,2012-02-13,2013-01-16,2014-02-21,,
N GRAND,206,206 N GRAND AVE, ,25990,MONTANA DISTRIBUTION SOFTWARE,SERVICE,COMPUTER CONSULTING/SYS DESIGN,2002-12-31,,,,,,,,,,,,,,
N GRAND,206,206 N GRAND AVE, ,25990,MONTANA REHABILITATION THERAPY,SERVICE,PHYSICAL THERAPY,2002-02-15,2003-02-13,2004-01-08,,,,,,,,,,,,
N GRAND,211,211 N GRAND AVE, ,430,APPLIED GEOMORPHOLOGY INC,SERVICE,OTHER,,,,,,,,,2010-07-01,2011-01-04,2012-02-08,2013-01-07,2013-12-18,2014-12-19,2016-02-01
N GRAND,211,211 N GRAND AVE, ,430,"DTM CONSULTING, INC",SERVICE,CONSULTING,2002-01-02,2003-02-10,2003-12-30,2005-01-05,2006-01-04,2007-02-08,2007-12-28,2009-01-02,2009-12-30,2011-01-03,2012-02-03,2013-01-02,2014-01-06,2014-12-23,2016-01-05
N GRAND,304,304 N GRAND AVE, ,26010,MENARD TOURS,SERVICE,GUIDE SERVICE,2002-09-23,,,,,,,,,,,,,,
N ROUSE,15,15 N ROUSE AVE, ,100070,"POUR HOUSE, THE",FOOD SERVICE,RESTAURANT,2002-01-02,2003-03-03,2004-09-07,2005-01-03,2005-12-28,2007-01-16,2007-12-20,2008-12-22,2009-12-30,2011-05-10,2012-01-27,2012-12-18,2013-12-16,2014-12-19,2015-12-22
N ROUSE,39,39 N ROUSE AVE, ,94720,CITY OF BOZEMAN-FIRE DEPT,CONTRACTORS,GENERAL,,,2003-12-12,2004-12-14,2006-01-31,2006-12-19,2008-01-02,2008-12-16,2009-12-16,2010-12-16,2012-04-25,2012-12-10,2013-11-15,2014-12-04,2015-12-14
N ROUSE,109,109 N ROUSE AVE, ,30450,"MIDTOWN AUTO REPAIR, INC",RETAIL,AUTO PARTS & ACCESSORIES,2002-01-09,,,,,,,,,,,,,,
N ROUSE,109,109 N ROUSE AVE, ,30450,SHACK UP,SERVICE,INTERIOR DESIGN,2002-04-24,2003-02-26,2004-03-02,2005-02-28,2006-02-22,2007-01-11,2008-01-29,,,,,,,,
N TRACY,16,16 N TRACY AVE, ,100500,PLUSH SALON,RETAIL,BEAUTY & HEALTH,2002-01-02,2003-01-16,2004-02-03,2005-02-02,2005-12-28,2006-12-26,2007-12-20,2008-12-24,2010-01-25,2011-07-11,2012-07-30,,,,
N TRACY,16,16 N TRACY AVE, ,100500,VIXEN,SERVICE,HEALTH & BEAUTY,,,,,,,,,,,,,2014-03-04,2014-12-29,2015-12-16
N TRACY,20,20 N TRACY AVE, ,211300,HOME BASE MONTANA,RETAIL,FURNITURE/HOME INTERIORS,,,,,,,,,,,,2013-12-16,2013-12-23,2015-01-16,2015-12-22
N TRACY,23,23 N TRACY AVE, ,27550,CATEYE CAFE,FOOD SERVICE,RESTAURANT,2002-01-02,2003-01-24,2003-12-18,2004-12-20,2005-12-28,2007-01-03,2008-08-25,2008-12-30,2010-01-22,2011-01-20,2012-01-25,2012-12-28,2013-12-31,2014-12-11,2015-12-31
N TRACY,23,23 N TRACY AVE, ,27550,SAN CORPORATION,SERVICE,INTERIOR DESIGN,2002-01-09,,,,,,,,,,,,,,
N TRACY,24,24 N TRACY AVE, ,67140,SCHUDOGS FREE RANGE SAUSAGE,FOOD SERVICE,FOOD TRUCK,,,,,,,,,,,,,,2015-06-11,2016-01-29
N TRACY,24,24 N TRACY AVE, ,67140,STARKY'S AUTHENTIC,FOOD SERVICE,RESTAURANT,,,2004-02-26,2005-04-11,2006-02-23,2006-12-28,2007-12-31,2009-08-14,2009-12-22,2011-01-14,2012-02-08,2013-02-13,2014-04-25,2015-04-16,2016-04-08
N TRACY,38,38 N TRACY AVE, ,207200,FANTASIA LLC DBA FANTASIA SHOWROOMS,RETAIL,FURNITURE/HOME INTERIORS,2002-01-22,2003-02-12,2004-02-12,2005-01-13,2006-01-23,2007-01-02,2007-12-26,2008-12-26,2010-10-12,2011-01-04,2012-01-04,2013-01-07,2013-12-19,2014-12-23,2016-01-29
N TRACY,111,111 N TRACY AVE, ,26980,INTRINSIK ARCHITECTURE,SERVICE,INTERIOR DESIGN,2002-06-14,2003-02-04,2004-02-04,2004-12-16,2006-01-04,2007-03-29,2007-12-18,2008-12-26,,,,,,,
N TRACY,205,205 N TRACY AVE, ,100050,MEDICATION ASSISTANCE,SERVICE,HEALTH CARE,,,,2005-01-06,,,,,,,,,,,
N TRACY,205,205 N TRACY AVE, ,100050,MOUNTAIN VIEW HEALTHCARE COMMUNITY,SERVICE,RETIREMENT HOME,2003-01-21,2003-01-30,2004-01-21,2005-01-21,2006-01-19,2007-02-15,2008-02-12,2009-01-20,2010-01-05,2011-01-07,2012-01-12,2012-12-24,2014-07-22,2014-12-26,2016-01-07
N WALLACE,24,24 N WALLACE AVE, ,32530,"AG DEPOT, INC",RETAIL,PETS & SUPPLIES/FEED STORES,2002-01-01,2003-02-07,2003-12-19,2004-12-21,2006-01-04,2006-12-27,2007-12-28,2009-01-05,2009-12-28,2010-12-30,2011-12-19,2012-12-19,2013-12-16,2014-12-11,2015-12-21
N WILLSON,10,10 N WILLSON AVE,UNIT 1,203470,WALKERS ENDEAVOR ENTERTAINMENT,SERVICE,OTHER,,,,,,,2008-07-17,,,,,,,,
N WILLSON,25,25 N WILLSON AVE, ,86250,ARTISTIC HAIR DESIGN,SERVICE,HEALTH & BEAUTY,2002-01-02,2003-01-16,2004-01-08,2004-12-20,2005-12-30,2007-01-02,2007-12-31,2008-12-24,2009-12-24,2011-01-25,2012-01-17,2013-01-02,2014-01-06,2015-01-12,2016-01-25
N WILLSON,25,25 N WILLSON AVE, ,86250,BRIDGER MOUNTAIN TRADING,RETAIL,OTHER,,,,,,,,,,,,,,2015-06-11,2015-12-15
N WILLSON,25,25 N WILLSON AVE, ,86250,CONSTANCE M WYNNE,SERVICE,BOOKKEEPING,2002-10-25,2003-02-18,,,,,,,,,,,,,
N WILLSON,25,25 N WILLSON AVE, ,86250,EARTH'S TREASURES,RETAIL,JEWELRY,2002-02-26,2003-03-13,2004-01-20,2004-12-22,2006-01-12,2007-03-12,2008-02-12,2009-02-24,2010-01-26,2011-02-03,2012-03-15,2013-01-30,2014-01-24,2015-02-17,2016-01-16
N WILLSON,25,25 N WILLSON AVE, ,86250,ROCKY MOUNTAIN PHARMACY,RETAIL,DRUG STORE,2002-02-21,2003-02-14,2004-01-06,2004-12-21,2006-01-05,2007-01-10,2007-12-21,2009-01-13,2010-10-07,2011-01-13,2012-01-13,2013-02-14,2013-12-30,2015-01-21,2016-01-29
N WILLSON,25,25 N WILLSON AVE, ,86250,WHISTLE PIG KOREAN,FOOD SERVICE,RESTAURANT,,,,,,,,,,,,,2014-04-10,2014-12-12,2015-12-22
N WILLSON,25,25 N WILLSON AVE, ,146690,CHICKPEA CAFE,FOOD SERVICE,RESTAURANT,,,,,,,,,2010-12-07,2011-04-25,2011-12-29,2013-01-07,2014-01-02,,
N WILLSON,300,300 N WILLSON AVE, ,26940,ACCENTS WEST INC,SERVICE,CONSULTING,2002-01-08,2003-02-14,2004-02-03,2005-01-12,2006-01-23,2007-01-19,,,,,,,,,
N WILLSON,300,300 N WILLSON AVE, ,26940,ACCENTS WEST INC,SERVICE,HEALTH CARE,,,,,,,2007-12-31,2009-01-20,2010-01-29,2011-02-01,2012-01-19,2013-02-01,2014-09-17,2015-01-12,2015-12-22
N WILLSON,300,300 N WILLSON AVE, ,26940,APOTHECARY,SERVICE,HEALTH & BEAUTY,,,,,,,,,2010-03-26,2011-03-07,,,,,
N WILLSON,300,300 N WILLSON AVE, ,26940,BAKER OPTICIANS,RETAIL,OPTICAL SUPPLIES,2002-01-18,2003-01-24,2003-12-24,2004-12-22,2006-01-13,2007-01-17,2008-01-08,2009-01-02,2009-12-24,2011-01-07,2011-12-20,2012-12-24,2013-12-16,2014-12-16,2016-01-13
N WILLSON,300,300 N WILLSON AVE, ,26940,BOZEMAN ORTHOPEDIC,SERVICE,HEALTH CARE,2002-02-14,2003-02-04,,,,,,,,,,,,,
N WILLSON,300,300 N WILLSON AVE, ,26940,BOZEMAN PLASTIC SURGERY/PRODT,RETAIL,MEDICAL SUPPLIES,2002-03-01,2003-01-30,2003-12-31,2004-12-28,2005-12-29,2007-01-04,2008-01-04,2009-03-23,2009-12-22,2011-01-20,2012-01-05,2013-01-10,2013-12-27,2014-12-19,2016-01-30
N WILLSON,300,300 N WILLSON AVE, ,26940,FIDUCIARY CONSULT & MGMT INC,SERVICE,CONSULTING,,,2004-03-16,2004-12-20,2006-01-04,2007-01-04,2008-01-14,2009-01-22,2010-01-15,2011-01-12,2011-12-28,2013-01-16,2014-01-02,2014-12-18,2016-03-07
N WILLSON,300,300 N WILLSON AVE, ,26940,FLAWLESS SKINCARE LLC,SERVICE,HEALTH & BEAUTY,,,,,,,,,2010-03-26,2011-01-05,,,,,
N WILLSON,300,300 N WILLSON AVE, ,26940,HAMLEY COMPUTING SOLUTIONS,SERVICE,COMPUTER CONSULTING/SYS DESIGN,2002-02-06,,,,,,,,,,,,,,
N WILLSON,300,300 N WILLSON AVE, ,26940,MEDICAL ARTS PHARMACY,RETAIL,DRUG STORE,2002-02-13,2003-01-30,2004-03-02,2005-03-25,2006-04-03,2007-01-04,2008-02-01,2008-12-29,2010-01-20,2011-04-04,2012-01-31,2013-01-24,2013-12-16,2015-03-25,
N WILLSON,300,300 N WILLSON AVE, ,26940,"MEDICAL LABORATORY SERVICE,INC",SERVICE,RESEARCH,2002-02-04,2003-01-23,2004-01-08,2005-01-19,2006-01-13,2006-12-27,2007-12-21,2009-01-09,2009-12-28,2011-01-03,,,,,
N WILLSON,300,300 N WILLSON AVE, ,26940,MONTANA BOTANICAL ANALYSIS LLC,SERVICE,OTHER,,,,,,,,,2010-09-22,2011-01-18,,,,,
N WILLSON,300,300 N WILLSON AVE, ,26940,MONTANA FIDUCIARY MANAGEMENT INC,SERVICE,OTHER,,,,,,,,,2010-08-26,2011-06-02,2012-01-03,2012-12-26,2013-12-23,2014-12-11,2016-01-29
N WILLSON,300,300 N WILLSON AVE, ,26940,ON POINT,RETAIL,BEAUTY & HEALTH,,,,,,2007-05-07,2008-01-03,2009-01-12,2010-01-04,2011-01-10,2011-12-28,2012-12-26,2013-12-23,2015-01-08,
N WILLSON,300,300 N WILLSON AVE, ,26940,OPTIMUM HEALTH COLON H THERAPY,SERVICE,HEALTH CARE,2002-02-22,2003-04-02,,,,,,,,,,,,,
N WILLSON,300,300 N WILLSON AVE, ,26940,PARAMEDICAL SKIN THERAPIES,SERVICE,HEALTH & BEAUTY,,,,,,,,2009-05-18,2010-01-12,2010-12-28,2011-12-22,2012-12-24,,,
N WILLSON,300,300 N WILLSON AVE, ,26940,"SAME DAY SURGERY CENTER,LLC",SERVICE,HEALTH CARE,2002-01-18,2003-02-27,2003-12-19,2004-12-29,2006-01-09,2007-01-05,2008-01-07,2009-01-12,2010-01-11,2011-01-05,2011-12-22,2013-01-04,,,
N WILLSON,300,300 N WILLSON AVE, ,79580,KELLY'S PLACE,SERVICE,HEALTH & BEAUTY,,,,,,,,,,,,2013-10-28,2013-12-16,2015-01-23,2016-02-29
N WILLSON,300,300 N WILLSON AVE, ,79580,MEDICAL ARTS WELLNESS CENTER,SERVICE,HEALTH & BEAUTY,,,,,,,,,,,,2013-11-06,2013-12-19,2014-12-11,2015-12-22
N WILLSON,300,300 N WILLSON AVE, ,79580,SIMPLY FIT,SERVICE,HEALTH CARE,,,,,,,,,,,,,,2015-10-22,
N WILLSON,300,300 N WILLSON AVE, ,79580,SIMPLY FIT,SERVICE,PERSONAL FITNESS,2002-09-23,2003-02-04,,,,,,,,,,,,,
N WILLSON,300,300 N WILLSON AVE,UNIT 3005,212450,CHRISTI DAHL SALON,SERVICE,HEALTH & BEAUTY,,,,,,,,,,,2012-05-18,2012-12-26,,,
S BLACK,3,3 S BLACK AVE,STE A,216240,RE-FORM LLC,SERVICE,DANCE STUDIO,,,,,,,,,,2012-01-31,2012-02-02,2012-12-27,2013-12-23,2014-12-15,2015-12-23
S BLACK,120,120 S BLACK AVE, ,2930,DISCOPOET PRODUCTIONS,SERVICE,COMMUNICATIONS,2003-04-18,2003-04-18,,,,,,,,,,,,,
S BLACK,120,120 S BLACK AVE, ,2930,FAMILY CHEF LLC,FOOD SERVICE,CATERING,,,,,,,,,,,2012-10-19,,,,
S BLACK,120,120 S BLACK AVE, ,2930,JEN'S CLEANING,SERVICE,CLEANING SERVICE,2002-01-10,,,,,,,,,,,,,,
S BLACK,202,202 S BLACK AVE, ,2910,BOZEMAN CTR FOR HEALING ARTS,SERVICE,HEALTH CARE,,,,,,,2008-01-28,2009-02-05,2009-12-23,2011-01-04,2012-01-03,2012-12-24,2013-12-16,2015-02-02,2016-01-16
S BLACK,202,202 S BLACK AVE, ,2910,BRIDGER MOUNTAIN KARATE-DO,SERVICE,PERSONAL FITNESS,,2003-01-21,2003-12-30,,,,,,,,,,,,
S BLACK,202,202 S BLACK AVE, ,2910,HYALITE PUBLISHING CO,SERVICE,OTHER,,,,,,,,,2010-11-01,,,,,,
S BLACK,202,202 S BLACK AVE, ,2910,MASSAGE FOR A CAUSE,SERVICE,MASSAGE THERAPY,,,,2005-07-22,2006-01-23,2006-12-26,,,,,,,,,
S BLACK,202,202 S BLACK AVE, ,2910,MOMENTUM PHYSICAL THERAPY,SERVICE,PHYSICAL THERAPY,,,,,,,,,,,,,2014-12-04,2015-01-15,2015-12-22
S BLACK,202,202 S BLACK AVE, ,2910,ORGANIC MAMA IN TOUCH,SERVICE,MASSAGE THERAPY,,,,2005-10-27,2006-01-04,2007-02-07,,,,,,,,,
S BLACK,202,202 S BLACK AVE, ,2910,PALMER & CO CONSTRUCTION LLC,CONTRACTORS,GENERAL,,,2004-08-30,2005-01-13,2006-01-05,2007-01-11,2008-02-20,2009-03-16,,,,,,,
S BLACK,202,202 S BLACK AVE, ,2910,SAN GRAPHIC & ADVERTISING,SERVICE,MARKETING & ADVERTISING,2002-07-08,,,,,,,,,,,,,,
S BLACK,202,202 S BLACK AVE, ,2910,UNIVERSAL HEALTH CONNECTION,SERVICE,HEALTH CARE,,,,,,,,,,,2012-07-03,,,,
S BLACK,210,210 S BLACK AVE, ,2870,COWBOY CATERING,FOOD SERVICE,CATERING,,,,,,,,,,,,,2014-07-17,2015-03-02,
S BOZEMAN,108,108 S BOZEMAN AVE, ,3060,BOOJUM EXPEDITIONS,SERVICE,OTHER,,,,,2006-05-08,2007-01-03,2007-12-20,2008-12-23,2010-01-15,,,,,,
S BOZEMAN,110,110 S BOZEMAN AVE, ,3030,WAVELAND CONSTRUCTION,CONTRACTORS,GENERAL,,,,2005-09-27,,,,,,,,,,,
S BOZEMAN,209,209 S BOZEMAN AVE, ,5270,JACK RANIERI INC,CONTRACTORS,GENERAL,,,,,2006-10-13,2007-03-15,2008-02-21,2009-02-23,,,,,,,
S CHURCH,107,107 S CHURCH AVE, ,910,BRAD THE BUILDER,CONTRACTORS,GENERAL,,,,,,,,,,,,,,2015-07-15,
S CHURCH,112,112 S CHURCH AVE, ,1700,EMILY GONZALES ARTWORK,SERVICE,OTHER,,,,,,,,,,,,,,,2016-03-23
S CHURCH,112,112 S CHURCH AVE, ,1700,LHGWORKS,SERVICE,OTHER,,,,,,,,,,,,,,,2016-03-23
S GRAND,22,22 S GRAND AVE, ,14640,"MERCURY ADVERTISING, INC",SERVICE,MARKETING & ADVERTISING,2002-01-25,2003-02-10,2004-01-06,2005-01-18,2006-01-23,2007-01-04,2008-01-10,2008-12-24,2009-12-24,2011-01-03,2011-12-22,2012-12-21,2013-12-19,2014-12-12,2016-01-30
S GRAND,26,26 S GRAND AVE, ,14610,SUMMIT BIKE & SKI SHOP,RETAIL,BICYCLE SHOP,2002-04-22,2003-04-02,2004-04-27,2005-04-04,2006-04-20,2007-03-07,2008-01-02,2008-12-30,2010-02-18,2010-12-30,2012-02-02,2013-04-04,2014-01-15,2015-04-21,2016-03-02
S TRACY,7,7 S TRACY AVE, ,119460,KALEIDOSCOPE YOUTH THEATER,SERVICE,DANCE STUDIO,,2003-12-10,2004-01-16,,,,,,,,,,,,
S TRACY,7,7 S TRACY AVE, ,119460,SEACAT CREATIVE,SERVICE,OTHER,,,,,,,,2009-10-07,2010-01-06,,,2013-09-03,2014-02-05,2014-12-11,2015-12-15
S TRACY,7,7 S TRACY AVE, ,119460,TANGLED,RETAIL,INTERNET SALES,,,,,,,,,2010-06-16,2011-03-21,,,,,
S TRACY,17,17 S TRACY AVE, ,5150,JIM'S DERMAGRAPHICS,SERVICE,TATTOOING,2002-02-08,,,,,,,,,,,,,,
S TRACY,17,17 S TRACY AVE, ,5150,JOHN L MILNER,SERVICE,CONSULTING,2002-02-15,2003-02-10,2004-02-06,2005-02-02,2006-02-06,2007-02-01,2008-02-01,2009-02-03,,,,,,,
S TRACY,17,17 S TRACY AVE, ,5150,MERLE NORMAN COSMETICS,SERVICE,HEALTH & BEAUTY,,2003-11-21,2004-02-09,2005-02-22,2006-03-02,2007-02-08,,,,,,,,,
S TRACY,17,17 S TRACY AVE, ,87770,"RO SHAM BO, LLC",RETAIL,ARTS & CRAFTS,,2003-06-24,,,,,,,,,,,,,
S TRACY,17,17 S TRACY AVE, ,87770,"RO SHAM BO, LLC",RETAIL,SPECIALTY STORE,,2003-04-28,2003-12-16,2004-12-22,2005-12-29,2007-01-02,2008-01-16,2009-01-06,2010-01-06,2011-01-04,2011-12-23,,,,
S TRACY,23,23 S TRACY AVE, ,5140,B DIRECT/ROMANO INC,SERVICE,MAILING/PACKING,,2003-05-15,2004-01-07,2005-01-27,2006-01-30,2007-01-22,,,,,,,,,
S TRACY,23,23 S TRACY AVE, ,5140,BLUSH,SERVICE,HEALTH & BEAUTY,,,,,,,,,,,2012-11-15,2013-01-02,2014-01-09,2015-03-04,2016-01-28
S TRACY,23,23 S TRACY AVE, ,5140,SUELTO,RETAIL,CLOTHING AND/OR SHOES,,,,,,,2008-01-14,2009-01-28,2010-01-27,2011-02-10,2012-02-08,2013-02-05,2014-02-11,2015-01-30,2016-02-01
S TRACY,25,25 S TRACY AVE, ,5130,"MANIGAULT, FRANCOISE ALICE",CONTRACTORS,GENERAL,,,,,,,,,2010-12-10,,,,,,
S TRACY,29,29 S TRACY AVE, ,5120,CAFE FRANCAIS DES ARTS,FOOD SERVICE,RESTAURANT,,,,,,,,,,2011-06-07,2011-12-21,2012-12-21,2014-01-09,2014-12-11,2015-12-21
S TRACY,29,29 S TRACY AVE, ,5120,"WILLIAMS GALLERY, INC",RETAIL,COIN STORE,2002-01-01,2003-01-16,2003-12-23,2005-01-06,2005-12-27,2006-12-26,2007-12-19,2008-12-23,2009-12-23,2010-12-28,2011-12-29,2012-12-24,2013-12-20,2014-12-15,2015-12-18
S TRACY,33,33 S TRACY AVE, ,5100,MERLE NORMAN COSMETIC STUDIO-I,RETAIL,COSMETIC & FRAGRANCE BOUTIQUE,2002-01-24,2003-02-14,,,,,,,,,,,,,
S TRACY,37,37 S TRACY AVE, ,100870,HAIR FARMERS,RETAIL,BEAUTY & HEALTH,2002-02-02,2003-02-04,2004-02-13,,,,,,,,,,,,
S TRACY,39,39 S TRACY AVE, ,5090,ALLEGRA,SERVICE,PRINTING,2002-01-25,2003-02-04,2004-01-21,2004-12-21,2006-01-26,2007-01-26,2008-01-25,2009-01-22,2010-01-26,2011-01-21,2011-12-21,2012-12-21,2014-02-20,2014-12-19,2015-12-24
S TRACY,39,39 S TRACY AVE, ,5090,BAD TASTE CULTURAL,RETAIL,OTHER,,,2004-05-21,2005-02-09,2006-02-28,2007-02-27,2008-01-29,2009-02-27,,,,,,,
S TRACY,202,202 S TRACY AVE, ,3990,WALL PATTERNS,RETAIL,FURNITURE/HOME INTERIORS,2002-01-28,2003-01-16,2004-01-07,2005-01-06,2006-01-18,2007-02-13,2008-02-04,2009-01-16,2010-01-05,2011-01-24,2012-02-13,2013-01-28,2014-01-15,2015-01-21,2016-03-07
S TRACY,211,211 S TRACY AVE, ,66530,SPACE MATTERS,SERVICE,OTHER,,,,,,,,,,,,,,,2016-03-08
S TRACY,212,212 S TRACY AVE, ,3980,BARTS CONSTRUCTION,CONTRACTORS,GENERAL,,,,,,,,,,,,2013-05-02,,,
S TRACY,212,212 S TRACY AVE, ,3980,REID SMITH ARCHITECTS,CONTRACTORS,GENERAL,,,,,,,,,,2011-07-21,,,,,
S WALLACE,25,25 S WALLACE AVE, ,217710,YELLOW HOUSE LLC,CONTRACTORS,GENERAL,,,,,,,,,,,,2013-04-29,2013-12-16,2015-01-13,2015-12-17
S WALLACE,113,113 S WALLACE AVE, ,900,ARCHITECTURAL ARTISAN,CONTRACTORS,DESIGNER/CONTRACTOR GEN,,,,,,,,,,,,,,2015-09-23,
S WALLACE,117,117 S WALLACE AVE, ,940,HIGH MIND MASSAGE,SERVICE,MASSAGE THERAPY,,,2004-06-24,2005-01-18,,,,,,,,,,,
S WALLACE,117,117 S WALLACE AVE, ,940,"WILD IRIS LANDSCAPING, INC",CONTRACTORS,LAWN CARE & LANDSCAPING,2002-02-13,2003-02-04,2003-12-19,2005-02-09,,,,,,,,,,,
S WALLACE,200,200 S WALLACE AVE, ,90540,OLIVE & WALLACE LLC,RETAIL,OTHER,,,,,,,,,,,,,2014-09-17,2014-12-17,2015-12-23
S WALLACE,201,201 S WALLACE AVE, ,1160,"LAUNDRY LOOPS, INC",HOME,TYPING/TRANSCRIPTION SERVICES,2002-02-04,2003-01-31,2004-01-23,2005-01-20,2005-12-30,2006-12-26,2008-01-17,,,,,,,,
S WALLACE,201,201 S WALLACE AVE, ,1160,"LAUNDRY LOOPS, INC",RETAIL,OTHER,,,,,,,,2009-02-03,2010-02-26,2011-01-05,2012-01-05,2012-12-21,2014-01-06,2014-12-26,2016-01-07
S WALLACE,201,201 S WALLACE AVE, ,1160,"OYM-DESIGN, LLC",SERVICE,OTHER,,,,,,,,,2010-10-26,2011-01-28,2012-01-25,2013-01-08,,,
S WALLACE,201,201 S WALLACE AVE,UNIT A-2,94150,DAVID C FOWLER ARCHITECTURE MT INC,CONTRACTORS,GENERAL,,,,,,,,,2010-12-23,2011-03-18,,,,,
S WALLACE,201,201 S WALLACE AVE,UNIT A-2,94150,RIVER CONSTRUCTION,CONTRACTORS,ROOFING,,2003-07-15,2004-04-23,2005-02-09,2006-03-22,,,,,,,,,,
S WALLACE,201,201 S WALLACE AVE,UNIT A-2,94150,TRUE NORTH RETREAT CO,SERVICE,CONSULTING,2002-02-07,,,,,,,,,,,,,,
S WALLACE,201,201 S WALLACE AVE,UNIT A-5,89720,K T V M-TV 6 & 42,BROADCASTING,RADIO & TV,2002-01-24,2003-03-05,2004-01-21,2005-01-26,2006-02-02,2007-01-23,2008-02-14,2009-02-13,2010-02-05,2011-01-16,2012-01-25,2013-02-14,2014-02-13,2015-02-09,2016-02-12
S WALLACE,201,201 S WALLACE AVE,UNIT A-6,89730,"J TECH COMMUNICATIONS, LLC",SERVICE,COMPUTER CONSULTING/SYS DESIGN,2002-02-28,2003-02-12,2004-01-08,2005-02-03,2005-12-30,2007-01-08,2007-12-20,2008-12-22,2009-12-28,2010-12-28,2012-01-18,2013-01-25,2013-12-18,2015-08-24,2016-02-19
S WALLACE,201,201 S WALLACE AVE,UNIT B-1-A,89740,STONEHORSE DESIGN,SERVICE,DRAFTING,2002-02-22,2003-03-07,2006-05-17,2006-05-17,2006-01-25,2007-01-30,2007-12-20,2009-01-02,2010-01-04,2011-02-04,,,,2015-01-08,2016-01-14
S WALLACE,201,201 S WALLACE AVE,UNIT B-2-F,124020,FUTURE FARM,SERVICE,MARKETING & ADVERTISING,2002-02-08,2003-02-18,2004-02-25,2005-02-01,2006-02-15,2007-01-29,2008-03-04,,,,,,,,
S WALLACE,201,201 S WALLACE AVE,UNIT B-3-A,89890,"MORRISON CREATIVE CO, INC",SERVICE,MARKETING & ADVERTISING,2002-01-22,2003-02-18,2004-01-28,2005-01-25,,,,,,,,,,,
S WALLACE,212,212 S WALLACE AVE, ,1020,HARRINGTON'S USED FURNITURE,RETAIL,FURNITURE/HOME INTERIORS,2002-02-14,2003-02-14,2004-03-05,2005-03-11,2006-02-23,2007-03-26,2008-04-03,2009-05-12,,,,,,,
S WALLACE,212,212 S WALLACE AVE, ,1020,"MARTIAL ARTS CENTER, INC",SERVICE,PERSONAL FITNESS,2002-02-06,2003-01-30,2003-12-19,2004-12-22,2006-01-03,2007-01-02,2008-01-08,2009-01-08,2010-01-08,2011-02-07,2012-01-18,2013-01-29,,,
S WILLSON,13,13 S WILLSON AVE, ,4370,"ART SHOPPE, THE",RETAIL,ARTS & CRAFTS,2002-02-22,2005-02-15,2003-12-31,2004-12-27,2006-02-13,2007-01-05,2009-07-13,2009-02-03,2010-02-17,2011-05-11,2012-02-16,2013-03-19,2013-12-13,2015-05-15,2015-12-16
S WILLSON,13,13 S WILLSON AVE, ,4370,BRIDGER PASTA COMPANY,FOOD SERVICE,RESTAURANT,,2003-09-12,2004-04-23,2005-04-07,2007-11-06,2007-11-06,2008-01-15,2009-03-02,,,,,,,
S WILLSON,13,13 S WILLSON AVE, ,4370,CELLULAR ONE-INACTIVE,SERVICE,COMMUNICATIONS,2002-01-25,,,,,,,,,,,,,,
S WILLSON,13,13 S WILLSON AVE, ,4370,GALLATIN WIRELESS,RETAIL,ELECTRONIC/ELECTRIC SALES,2002-10-31,2003-01-23,2004-02-27,2004-12-20,2006-01-06,2006-12-28,2007-12-26,,,,,,,,
S WILLSON,13,13 S WILLSON AVE, ,4370,MONTANA NOODLE COMPANY,FOOD SERVICE,RESTAURANT,,,,,,,,,,2011-04-22,2012-01-17,2013-01-28,2013-12-23,2014-12-18,2016-01-13
S WILLSON,13,13 S WILLSON AVE, ,4370,PHD'S EATERY,FOOD SERVICE,RESTAURANT,2002-07-18,2003-02-21,,,,,,,,,,,,,
S WILLSON,13,13 S WILLSON AVE, ,4370,ROCKY MTN FINANCIAL,SERVICE,FINANCIAL/INVESTMENT,2002-01-02,2003-03-03,2003-12-30,2004-12-17,2006-01-03,2006-12-28,2008-01-25,2009-01-05,2010-01-04,2011-01-12,2011-12-27,2013-01-03,2014-01-09,2014-12-26,2016-01-16
S WILLSON,13,13 S WILLSON AVE, ,4370,"TAYLOR CONSTRUCTION, INC",CONTRACTORS,GENERAL,2002-01-15,2003-02-10,,,,,,,,,,,,,
S WILLSON,14,14 S WILLSON AVE, ,188380,BLISS HAIR STUDIO,RETAIL,BEAUTY & HEALTH,2002-02-04,2003-08-07,,,,,,,,,,,,,
S WILLSON,14,14 S WILLSON AVE, ,188380,BLISS HAIR STUDIO,SERVICE,HEALTH & BEAUTY,,2003-06-24,2004-01-05,2005-02-14,2005-12-27,2006-12-29,2008-01-02,2008-12-22,2010-01-15,2011-02-04,2012-01-13,2013-02-05,2014-01-31,2015-01-30,2016-02-05
S WILLSON,14,14 S WILLSON AVE, ,188380,WAX BAR,RETAIL,BEAUTY & HEALTH,,,,,,,,2010-02-12,2010-02-17,2011-02-04,,,,,
S WILLSON,18,18 S WILLSON AVE, ,206680,CELLO/ CELLO VISIONS,RETAIL,OTHER,,,,,,,,,2010-05-12,2011-02-14,2012-02-13,2013-01-09,2013-12-16,,
S WILLSON,18,18 S WILLSON AVE, ,206680,"HATTIE REX, LLC",RETAIL,OTHER,,,,,,,,,,,2012-04-10,2012-12-18,2013-12-17,2014-12-12,2016-01-13
S WILLSON,18,18 S WILLSON AVE, ,206680,SANCTUARY HOLISTIC SKIN & BODY,SERVICE,MASSAGE THERAPY,,,,,,,,2009-10-22,2010-02-24,,,,,,
S WILLSON,19,19 S WILLSON AVE, ,166670,OVER THE TAPAS,FOOD SERVICE,RESTAURANT,2002-01-22,2003-02-27,2004-02-17,2005-02-02,2006-01-06,2007-01-08,2007-12-31,2009-01-15,2010-01-20,2011-01-27,,,2014-07-09,,2016-02-11
S WILLSON,24,24 S WILLSON AVE, ,5050,"BIG DAN THE HANDYMAN, LLC",CONTRACTORS,HANDY PERSONS,,,,,,,,,,,,,,2015-04-13,2016-01-25
S WILLSON,24,24 S WILLSON AVE, ,5050,"COMPUTER GUY OF BOZEMAN, LLC",SERVICE,COMPUTER CONSULTING/SYS DESIGN,2002-12-31,2003-01-15,2004-01-26,2005-01-24,2006-01-26,2007-02-01,2008-01-16,2009-02-18,,,,,,,
S WILLSON,24,24 S WILLSON AVE, ,5050,COMPUTER TROUBLESHOOTERS BOZ,SERVICE,COMPUTER CONSULTING/SYS DESIGN,,2003-01-08,2004-01-22,2004-12-23,2006-01-04,2006-12-29,2007-12-20,2009-01-05,2010-03-10,2011-01-06,2011-12-23,2012-12-24,2013-12-23,2015-01-15,
S WILLSON,24,24 S WILLSON AVE, ,5050,EXCEPTIONAL FAMILY CONNECTIONS (EFC),SERVICE,OTHER,,,,,,,,,2010-02-12,2011-03-25,,,,,
S WILLSON,24,24 S WILLSON AVE, ,5050,FOOTZONE BALANCE,SERVICE,HEALTH CARE,,,,,,,,,2010-05-10,,,,,,
S WILLSON,24,24 S WILLSON AVE, ,5050,GREATHOUSE BUILDERS INC,CONTRACTORS,GENERAL,,,,,,,2009-06-08,,,,,,,,
S WILLSON,24,24 S WILLSON AVE, ,5050,GUARDIAN CAPITAL,BANKS,MORTGAGE/ESCROW COMPANIES,2002-02-04,2003-02-10,2004-01-07,2005-02-18,2006-02-14,2007-02-05,,,,,,,,,
S WILLSON,24,24 S WILLSON AVE, ,5050,HEADWATERS INTERNET,SERVICE,COMPUTER CONSULTING/SYS DESIGN,,2003-07-15,2003-12-16,,,,,,,,,,,,
S WILLSON,24,24 S WILLSON AVE, ,5050,INACOM INFORMATION SYSTEM,SERVICE,COMMUNICATIONS,2002-01-16,,,,,,,,,,,,,,
S WILLSON,24,24 S WILLSON AVE, ,5050,MONTANA IRONWORKS INC,CONTRACTORS,GENERAL,,,,,,,,,,,,2013-07-01,2013-12-26,2015-01-16,2016-02-01
S WILLSON,24,24 S WILLSON AVE, ,5050,NINA PASCHENKO,SERVICE,MASSAGE THERAPY,,,,,,,,2009-02-12,2009-12-29,2010-12-27,2011-12-23,,,,
S WILLSON,24,24 S WILLSON AVE, ,5050,SEABURY DESIGN ASSOCIATES PC,CONTRACTORS,GENERAL,,,,2005-03-21,,,,,,,,,,,
S WILLSON,24,24 S WILLSON AVE, ,5050,SPARKLING KIWI LLC,RETAIL,AUTO & RV,,,,,,,,,,2011-07-18,,,,,
S WILLSON,24,24 S WILLSON AVE, ,5050,SPARKLING KIWI LLC,SERVICE,CAR WASH,,,,,,,,,2010-09-17,,,,,,
S WILLSON,24,24 S WILLSON AVE, ,5050,T L C MASSAGE THERAPY,SERVICE,MASSAGE THERAPY,2002-01-14,2003-01-23,2003-12-30,2004-12-30,2006-01-18,2007-01-11,2008-01-03,2009-02-04,2010-01-12,2011-01-16,2012-01-23,2013-01-16,2014-01-21,2014-12-19,2015-12-31
S WILLSON,31,31 S WILLSON AVE, ,4380,BOZEMAN OIL AND VINEGAR,RETAIL,SPECIALTY FOOD,,,,,,,,,,,,2014-01-28,2014-02-24,2015-03-09,
S WILLSON,31,31 S WILLSON AVE, ,4380,NORTHERN DELIGHTS CAKES &,RETAIL,SPECIALTY FOOD,2002-06-25,,,,,,,,,,,,,,
S WILLSON,31,31 S WILLSON AVE, ,4380,OUT ON A LIMB GALLERY,RETAIL,ART STUDIOS & GALLERIES,,,,,,,,,,2011-11-08,2012-01-09,,,,
S WILLSON,31,31 S WILLSON AVE, ,4380,STYLE A,RETAIL,ART STUDIOS & GALLERIES,,,,,,,,,,,,,,2015-11-05,
S WILLSON,35,35 S WILLSON AVE, ,235420,NUTSHELL NATURALS,RETAIL,HEALTH FOOD STORE,2002-01-23,2003-01-23,2003-12-30,2004-12-21,2006-01-12,2007-01-29,2008-02-22,2009-02-13,2010-03-02,2011-04-01,2012-01-04,2013-01-02,2014-01-27,2014-12-19,2016-03-03
S WILLSON,113,113 S WILLSON AVE, ,146720,"COTTERELL, RYAN",RETAIL,INTERNET SALES,,,,,,,,2009-05-11,,,,,,,
S WILLSON,201,201 S WILLSON AVE, ,4420,ALPINE THERAPEUTIC MASSAGE,SERVICE,MASSAGE THERAPY,,,,,,,2008-07-17,2009-02-10,2009-12-31,,,,,,
S WILLSON,201,201 S WILLSON AVE, ,4420,CARING HEARTS LL,SERVICE,HEALTH CARE,,,,,,2007-02-06,2008-01-10,,,,,,,,
S WILLSON,201,201 S WILLSON AVE, ,4420,ELLA'S SEWING,SERVICE,SEWING/ALTERATIONS,2002-02-13,2003-02-13,2004-02-09,2005-02-11,2006-02-14,2007-02-14,2008-02-22,2009-02-10,2010-02-16,2011-02-11,2012-02-08,2013-02-13,2014-01-22,2015-02-09,2016-01-29
S WILLSON,201,201 S WILLSON AVE, ,4420,UTOPIA LANDSCAPING,CONTRACTORS,EXCAVATING,2002-06-14,2003-04-02,2004-03-29,2005-03-01,,,,,,,,,,,
S WILLSON,201,201 S WILLSON AVE, ,4420,YOU NEED A MASSAGE,SERVICE,MASSAGE THERAPY,,,,,2006-01-05,2006-12-29,2008-07-08,2009-02-09,2010-02-18,2011-06-13,2012-01-05,2013-02-06,2014-07-14,2015-02-17,2016-02-25
S WILLSON,209,209 S WILLSON AVE, ,4430,ABSOROKA ENERGY LLC,SERVICE,OTHER,,,,,,,,,,,,,2014-11-12,2015-01-15,2016-01-29
S WILLSON,213,213 S WILLSON AVE, ,4440,WILLSON AVE BOOKS,RETAIL,BOOKSTORE,2002-01-07,2003-01-24,2004-02-03,2004-12-20,2006-04-19,,,,,,,,,,
S WILLSON,213,213 S WILLSON AVE, ,4440,YELLOWDOG FLYFISHING ADVENTURES LLC,SERVICE,OTHER,,,,,,,,,2010-06-04,2010-12-27,2012-01-24,2012-12-21,2013-12-31,2015-01-08,2016-03-02
W BABCOCK,6,6 W BABCOCK ST, ,4020,BATH THYME,SERVICE,HEALTH & BEAUTY,,,,,,,,,2010-05-27,2011-02-15,2012-01-30,2013-02-13,2014-02-10,,
W BABCOCK,6,6 W BABCOCK ST, ,4020,BEST SERVICES,SERVICE,MAINTENANCE/REPAIR SVCS,,,,,,,,,,,,,,2015-10-09,2015-12-14
W BABCOCK,19,19 W BABCOCK ST, ,5070,INTERNAL COMBUSTION MACHINE,SERVICE,AUTO & RV REPAIR/MAINT,2002-01-08,2003-02-04,2003-12-24,2004-12-27,2006-01-04,2007-01-04,2008-01-11,2009-01-06,2010-01-11,2011-01-03,2012-01-04,2012-12-24,2014-01-07,,
W BABCOCK,19,19 W BABCOCK ST, ,5070,"ONTE' WIRELESS, INC",SERVICE,COMMUNICATIONS,2002-01-02,2003-01-23,2003-12-23,,,,,,,,,,,,
W BABCOCK,23,23 W BABCOCK ST, ,5060,ABBY HETHERINGTON INTERIORS LLC,SERVICE,INTERIOR DESIGN,,,,,,,,,,,2012-09-24,2013-05-13,2013-12-27,2014-12-16,2016-01-07
W BABCOCK,131,131 W BABCOCK ST, ,14590,EL HEART LLC,RETAIL,CLOTHING AND/OR SHOES,,,,,,,,,,,,,2014-11-21,2015-02-10,2016-04-05
W BABCOCK,131,131 W BABCOCK ST, ,14590,MOXIE,RETAIL,BEAUTY & HEALTH,2002-02-21,2003-02-28,2003-12-22,2005-01-03,2006-02-15,2007-02-20,2008-01-16,2009-01-06,2010-02-24,2011-01-05,2012-01-09,2013-01-02,2014-02-11,2015-02-17,2016-02-01
W LAMME,14,14 W LAMME ST, ,26950,BL MAINTENANCE,CONTRACTORS,HANDY PERSONS,,,,2005-09-29,2006-02-13,,,,,,,,,,
W LAMME,17,17 W LAMME ST, ,27710,BOB'S PAINTING & SHEETROCK,CONTRACTORS,PAINTING,,,,2005-11-01,,,,,,,,,,,
W LAMME,17,17 W LAMME ST, ,27710,BRIDGER SYSCOMM LLC,SERVICE,COMPUTER CONSULTING/SYS DESIGN,,,,,,,2008-11-03,,,,,,,,
W LAMME,17,17 W LAMME ST, ,27710,BROTHAMANGISTS.COM,SERVICE,OTHER,,,,,,,,2009-06-08,,,,,,,
W LAMME,17,17 W LAMME ST, ,27710,CJC ROOFING,CONTRACTORS,ROOFING,,,,,,,,,,2011-06-02,,,,,
W LAMME,17,17 W LAMME ST, ,27710,DUNHAM LANDSCAPING,CONTRACTORS,LAWN CARE & LANDSCAPING,,,2004-08-24,,,,,,,,,,,,
W LAMME,17,17 W LAMME ST, ,27710,HARDIN CONSTRUCTION AND MAINTENANCE,CONTRACTORS,GENERAL,,,,,,,,,,,,2013-12-03,2014-01-10,,
W LAMME,17,17 W LAMME ST, ,27710,TIFFANY'S SWEEP AND CLEAN,SERVICE,CLEANING SERVICE,,,,,2006-06-28,,,,,,,,,,
W LAMME,17,17 W LAMME ST, ,27710,TONI THE TIGER CLEANING LAIR,SERVICE,CLEANING SERVICE,,,,,2006-08-08,,,,,,,,,,
W LAMME,26,26 W LAMME ST, ,27660,AURORA GARDEN SUPPLY,SERVICE,OTHER,,,,,,,,,2010-01-27,2011-05-02,,,,,
W LAMME,26,26 W LAMME ST, ,27660,SET IN STONE MASONRY INC,CONTRACTORS,"STONE, BLOCK & MASONRY",,,,,,,,,2010-07-14,2011-03-28,2012-01-11,2012-12-20,2013-12-18,2014-12-23,2016-01-30
W LAMME,112,112 W LAMME ST, ,25980,RESPONSIBLE THUMB,SERVICE,OTHER,,,,,,,,,,2011-04-20,,,,,
W LAMME,122,122 W LAMME ST, ,25960,ADOUR GOOD FOOD LLC,FOOD SERVICE,CATERING,,,,,,,,,,,,2014-02-13,2014-02-26,2014-12-19,
W LAMME,122,122 W LAMME ST, ,25960,TIBETAN TRADER/TEA HOUSE CO,FOOD SERVICE,RESTAURANT,2002-01-25,,,,,,,,,,,,,,
W LAMME,200,200 W LAMME ST, ,99790,IBM CORPORATION,RETAIL,COMPUTER HDWR/SOFTWARE,2002-02-08,2003-02-12,2004-02-17,2005-02-07,2006-02-13,2007-02-05,2008-02-04,2009-02-09,2010-02-10,2011-01-18,2012-02-03,2013-02-15,2014-02-14,2015-02-17,2016-02-12
W LAMME,205,205 W LAMME ST, ,25730,JIMINY FIXIT,CONTRACTORS,GENERAL,,,,,,,,,,,,2013-07-09,,,
W MAIN,2,2 W MAIN ST, ,4970,CELLO/ CELLO DESIGN,CONTRACTORS,GENERAL,,,,,,,,,,,,,2014-07-28,2015-01-21,
W MAIN,2,2 W MAIN ST, ,4970,CELLO/ CELLO DESIGN,RETAIL,SPECIALTY STORE,,,,,,,,,,,,,,,2016-01-14
W MAIN,2,2 W MAIN ST, ,4970,GALLATIN GARDENS,RETAIL,FLORISTS,,,,,,,,,2010-03-29,,,,,,
W MAIN,2,2 W MAIN ST, ,4970,ODYSSEY,RETAIL,BEAUTY & HEALTH,2002-12-31,2003-02-21,2004-02-13,2005-02-15,2006-02-23,2007-01-24,2008-03-03,2009-02-19,2010-03-01,2011-02-08,2012-08-17,2013-03-05,2014-03-10,,
W MAIN,6,6 W MAIN ST, ,99820,VARGO'S JAZZ CITY & BOOKS,RETAIL,BOOKSTORE,2002-02-13,2003-02-12,2004-02-09,2005-03-30,2006-02-13,2007-02-12,2008-01-14,2009-02-09,2010-02-08,2011-02-14,2012-02-06,2013-02-11,2014-02-18,2015-02-09,2016-01-29
W MAIN,7,7 W MAIN ST, ,26580,ALTERNATIVE PRESCRIPTION/CHRIS JONES LMT#1037,SERVICE,HEALTH CARE,,,,,,,,,,2011-04-05,,,,,
W MAIN,7,7 W MAIN ST, ,26580,"LEGACY GALLERIES, INC",RETAIL,ART STUDIOS & GALLERIES,,,,,,,,,,,,2013-12-05,2014-01-24,2014-12-26,2016-01-29
W MAIN,7,7 W MAIN ST, ,26580,MAIN STREET HEALTH AND WELLNESS LLC,SERVICE,PERSONAL FITNESS,,,,2006-01-12,2006-02-13,2007-01-08,2008-02-12,2009-02-09,2010-01-26,2011-01-11,2012-03-12,2013-01-09,2014-01-27,,
W MAIN,7,7 W MAIN ST, ,26580,NU2U! DOWNTOWN,RETAIL,DEPARTMENT STORE,2002-01-18,2003-02-18,2004-02-17,2005-09-26,2006-02-24,,,,,,,,,,
W MAIN,7,7 W MAIN ST, ,26580,O'BERRY COLLABORATIVE LLC,SERVICE,MARKETING & ADVERTISING,,,,2005-06-01,2006-02-27,2007-02-20,2008-07-18,2009-02-02,2010-02-04,2011-02-01,2012-02-17,2013-02-04,2013-12-26,2014-12-29,2015-12-21
W MAIN,7,7 W MAIN ST,STE 0A,216550,MAIN STREET FITNESS INC,SERVICE,PERSONAL FITNESS,,,,,,,,,,,,,2014-09-29,2014-12-11,2015-12-23
W MAIN,7,7 W MAIN ST,STE 101,216560,HEYDAY,RETAIL,FURNITURE/HOME INTERIORS,,,,,,2008-08-27,2008-09-03,2008-12-22,2009-12-21,2011-01-04,2012-01-11,2012-12-19,2013-12-12,2014-12-11,2015-12-21
W MAIN,7,7 W MAIN ST,STE 102,216570,ARTISAN RUG GALLERY,RETAIL,FURNITURE/HOME INTERIORS,,,,,,2008-04-03,2008-04-22,2009-01-08,2010-02-10,2011-02-14,2012-02-10,2013-03-11,,,
W MAIN,7,7 W MAIN ST,STE 103,221040,CHAMPU EMPORIUM LLC,SERVICE,HEALTH & BEAUTY,,,,,,,,,,,,,2014-02-13,2014-12-23,2015-12-18
W MAIN,7,7 W MAIN ST,STE 103,221040,THE LASH BOUTIQUE,SERVICE,HEALTH & BEAUTY,,,,,,,,,,,,2013-09-13,,,
W MAIN,12,12 W MAIN ST, ,102930,RIALTO THEATRE,SERVICE,OTHER,,,,,,,,,,2011-12-01,,,,,
W MAIN,16,16 W MAIN ST, ,4990,CREPES A LA CART,FOOD SERVICE,RESTAURANT,,,,,2006-06-19,,,,,,,,,,
W MAIN,16,16 W MAIN ST, ,4990,GLOBAL TRADING SERVICES,WHOLESALE,GENERIC,2002-09-09,,,,,,,,,,,,,,
W MAIN,16,16 W MAIN ST, ,4990,HEAVENS TO BETSY BAKERY,FOOD SERVICE,RESTAURANT,,,,,2007-02-15,2007-03-01,2008-01-14,2009-03-02,2010-08-30,2011-04-13,2012-01-30,2013-03-13,,,
W MAIN,16,16 W MAIN ST, ,4990,JOSHUA JAMES INTERNATIONAL,SERVICE,HEALTH & BEAUTY,,,,,,,,,,,,,,,2016-03-23
W MAIN,16,16 W MAIN ST, ,4990,MARTY'S,RETAIL,GIFTS & CARDS,2002-02-08,2003-01-08,2004-03-18,2005-04-15,2006-01-23,,,,,,,,,,
W MAIN,16,16 W MAIN ST, ,4990,WILD JOE'S COFFEE HOUSE,FOOD SERVICE,RESTAURANT,,,,,2006-07-10,2007-01-11,2008-01-14,2008-12-22,2010-01-05,2011-04-14,,,,,
W MAIN,16,16 W MAIN ST, ,4990,YELLOWSTONE HARLEY-DAVIDSON,RETAIL,OTHER,,,2005-01-26,2005-02-14,,,,,,,,,,,
W MAIN,18,18 W MAIN ST, ,207130,ECO AUTO INC DBA WILD JOE'S COFFEE,FOOD SERVICE,RESTAURANT,,,,,,,,,,,2012-01-30,2012-12-21,2013-12-31,2014-12-23,2016-01-04
W MAIN,20,20 W MAIN ST, ,93680,MCNALLY INTERIORS & DESIGN,RETAIL,FURNITURE/HOME INTERIORS,2002-06-14,2003-01-23,2004-02-26,2005-01-06,2006-01-06,2007-01-29,2007-12-20,2009-08-27,2009-12-24,2011-01-20,2012-01-17,2013-03-13,2013-12-26,2014-12-26,2015-12-22
W MAIN,20,20 W MAIN ST, ,93680,MONTANA MOTOR SUPPLY,RETAIL,AUTO PARTS & ACCESSORIES,2002-02-04,2003-02-24,,,,,,,,,,,,,
W MAIN,22,22 W MAIN ST, ,70930,ROCKY MOUNTAIN SPORTS,RETAIL,SPORTS EQUIP/SPORTING GOODS,2002-02-13,,,,,,,,,,,,,,
W MAIN,23,23 W MAIN ST, ,26560,"BENT LENS, INC",RETAIL,OPTICAL SUPPLIES,2002-01-23,2003-02-11,2004-01-21,2005-02-10,2006-01-13,,,2009-06-01,2010-03-31,2011-01-28,2012-01-17,2013-03-07,2014-02-11,2015-02-17,2016-02-01
W MAIN,23,23 W MAIN ST, ,26560,GREY FOX GALLERY,RETAIL,ART STUDIOS & GALLERIES,2002-01-01,2003-02-18,2003-12-30,2006-01-04,2006-01-04,2007-01-23,2007-12-24,2008-12-31,2010-02-10,2011-02-09,,,,,
W MAIN,23,23 W MAIN ST, ,26560,STIX LLC,RETAIL,OTHER,,,2005-02-22,2005-03-14,2006-01-04,2007-01-04,2008-02-26,2009-01-05,2010-02-05,2011-03-22,2012-01-10,2012-12-18,2013-12-26,2014-12-11,2016-03-02
W MAIN,24,24 W MAIN ST, ,100010,CHAPARRAL FINE ART,RETAIL,ART STUDIOS & GALLERIES,2002-01-08,,,,2006-01-04,2007-01-12,2008-01-11,2009-01-20,,,,,,,
W MAIN,24,24 W MAIN ST, ,100010,CHAPARRAL FINE ART,RETAIL,TIRE STORE,,2003-01-14,2004-01-07,2004-12-28,,,,,,,,,,,
W MAIN,24,24 W MAIN ST, ,100010,HEAD WEST,RETAIL,CLOTHING AND/OR SHOES,,,,,,,,2009-07-01,2010-01-06,2011-02-08,2011-12-28,2013-01-07,2013-12-30,2014-12-09,2016-01-19
W MAIN,28,28 W MAIN ST, ,99780,COUNTRY BOOKSHELF,RETAIL,BOOKSTORE,2002-01-14,2003-02-10,2004-02-13,2004-12-21,2005-12-28,2007-01-02,2008-02-12,2009-02-10,2010-01-05,2010-12-29,2011-12-29,2013-01-02,2013-12-26,2014-12-11,2015-12-23
W MAIN,29,29 W MAIN ST, ,26540,CACTUS RECORDS,RETAIL,MUSICAL RECORDINGS,2002-02-18,2003-03-03,2004-01-06,2005-01-06,2005-12-30,2007-01-02,2007-12-28,2009-01-20,2010-01-04,2011-01-03,2012-01-09,2012-12-27,2014-02-28,2014-12-19,2016-01-26
W MAIN,30,30 W MAIN ST, ,5020,ACGM FREELANCE,SERVICE,CONSULTING,,,,,2006-06-06,2007-01-11,2008-01-17,2009-01-22,,,,,,,
W MAIN,30,30 W MAIN ST, ,5020,ALONG THE GARDEN WALL,RETAIL,FURNITURE/HOME INTERIORS,2002-02-04,2003-02-07,,,,,,,,,,,,,
W MAIN,30,30 W MAIN ST, ,5020,D3 WINTER SPORTS,RETAIL,CLOTHING AND/OR SHOES,,,2004-03-04,2004-12-17,2006-02-23,2007-01-16,2008-01-11,2009-04-28,2010-02-10,2011-02-15,2012-02-21,2013-01-16,,,
W MAIN,33,33 W MAIN ST, ,26520,CANNERY LOUNGE/BURGER BOB'S,RETAIL,LIQUOR STORE,2002-01-28,2003-01-30,2004-03-02,2005-01-03,2006-01-05,2007-01-04,2007-12-21,2008-12-24,2009-12-22,2010-12-28,2011-12-19,2012-12-19,2013-12-16,2014-12-11,2015-12-16
W MAIN,33,33 W MAIN ST,UNIT 3,26530,BISL FOODS LLC,FOOD SERVICE,RESTAURANT,,,,,,,,,,,,,,,2016-04-06
W MAIN,33,33 W MAIN ST,UNIT 3,26530,POOR RICHARD'S NEWS,RETAIL,BOOKSTORE,2002-01-23,2003-01-23,2003-12-24,2004-12-27,2006-06-06,2007-01-04,2008-01-08,2009-03-13,2010-03-05,2010-12-27,2011-12-27,2013-03-05,2014-01-10,2014-12-30,
W MAIN,34,34 W MAIN ST, ,5030,VISIONS WEST GALLERY,RETAIL,ART STUDIOS & GALLERIES,2002-01-22,2003-03-14,2003-12-17,2005-01-06,2006-01-13,2007-01-16,2008-01-02,2009-01-12,2010-04-05,2011-01-16,2012-02-15,2013-03-15,2014-01-09,2015-03-17,2016-02-01
W MAIN,35,35 W MAIN ST, ,139660,"LEAF & BEAN, THE",FOOD SERVICE,RESTAURANT,2002-01-23,2003-01-23,2003-12-18,2004-12-20,2006-06-06,2007-01-04,2008-01-08,2009-10-06,2010-03-05,2011-01-05,2011-12-28,2013-01-29,2014-02-27,2015-03-13,
W MAIN,35,35 W MAIN ST, ,139660,TACO DEL SOL,FOOD SERVICE,RESTAURANT,,,,,,,,,,,,2013-05-15,2014-01-30,2015-02-17,2016-02-01
W MAIN,36,36 W MAIN ST, ,103380,"ROOT, THE",RETAIL,CLOTHING AND/OR SHOES,2002-01-22,2003-02-20,2004-01-02,2004-12-29,2006-07-19,2007-01-24,2008-02-04,2009-01-23,2010-01-04,2011-01-06,2012-07-25,2013-01-02,2013-12-31,2015-01-05,2015-12-16
W MAIN,38,38 W MAIN ST, ,133590,VAPOR GROUP,SERVICE,OTHER,,,,,,,,,,,2013-01-22,2013-02-20,2014-03-31,,
W MAIN,39,39 W MAIN ST, ,103630,CANNERY CART,FOOD SERVICE,RESTAURANT,2002-01-01,,,,,,,,,,,,,,
W MAIN,40,40 W MAIN ST, ,5040,HIKING IN HEELS,RETAIL,CLOTHING AND/OR SHOES,,,,,,,,,2010-11-17,,,,,,
W MAIN,40,40 W MAIN ST, ,5040,"LAWLESS, WHITNEY",SERVICE,MASSAGE THERAPY,,,2004-09-09,,,,,,,,,,,,
W MAIN,40,40 W MAIN ST, ,5040,MORTGAGE WORKS,BANKS,MORTGAGE/ESCROW COMPANIES,,2003-04-14,2004-02-03,2005-01-04,,,,,,,,,,,
W MAIN,40,40 W MAIN ST, ,5040,PLUME BRIDAL,RETAIL,CLOTHING AND/OR SHOES,,,,,,,,,,2011-11-08,2011-12-21,2012-12-28,2013-12-23,2014-12-23,2016-02-03
W MAIN,40,40 W MAIN ST, ,5040,"POSH, LLC",RETAIL,JEWELRY,2002-01-28,2003-02-20,2004-02-26,2005-03-02,2006-02-01,2007-01-11,2008-01-15,2008-12-22,2010-04-12,,,,,,
W MAIN,40,40 W MAIN ST, ,5040,RED WILLOW,RETAIL,BEAUTY & HEALTH,2002-01-23,2003-01-24,2003-12-18,2004-12-20,2006-10-12,2007-01-08,2008-02-20,,,,,,,,
W MAIN,40,40 W MAIN ST, ,5040,STUDIO ONE,SERVICE,HEALTH & BEAUTY,2002-01-01,2003-01-27,2003-12-17,2005-01-05,2006-01-09,2007-01-04,2007-12-24,2009-01-07,,,,,,,
W MAIN,40,40 W MAIN ST, ,5040,XPRESS EQUIPMENT LEASING/FINAN,RENTALS,EQUIPMENT,2002-03-05,,,,,,,,,,,,,,
W MAIN,42,42 W MAIN ST, ,86160,ALARA LLC,RETAIL,JEWELRY,,,2004-08-24,2005-02-02,2006-01-04,2007-01-04,2008-02-27,2009-01-09,2010-01-04,2010-12-27,2011-12-27,2013-01-03,2013-12-31,2015-01-21,2015-12-31
W MAIN,101,101 W MAIN ST, ,26510,CHALET SPORTS,RETAIL,SPORTS EQUIP/SPORTING GOODS,2002-01-23,2003-01-31,2004-01-20,2005-01-24,2006-01-30,2007-01-29,2008-01-17,2009-01-26,2010-01-19,2011-01-24,2011-12-29,2013-01-17,2014-01-14,2015-02-19,2016-01-30
W MAIN,105,105 W MAIN ST, ,133730,CATALYST COMMERCIAL MANAGEMENT,CONTRACTORS,GENERAL,,,,,,2007-05-23,2007-12-24,2008-12-24,2010-01-20,2011-02-03,2012-02-01,2012-12-21,2014-06-26,2015-01-13,2016-02-17
W MAIN,105,105 W MAIN ST, ,133730,ROO'S PLACE CATERING,SERVICE,OTHER,,,,,,,,,2010-03-08,2011-01-19,2012-04-02,2013-03-19,,,
W MAIN,105,105 W MAIN ST, ,133730,"TED'S MONTANA GRILL, INC",FOOD SERVICE,RESTAURANT,,,,,,,2008-03-04,2009-01-20,2010-02-02,2011-01-07,2011-12-27,2012-12-26,2014-01-08,2014-12-22,2016-01-05
W MAIN,105,105 W MAIN ST,UNIT 1A,126130,BACCHUS PUB,FOOD SERVICE,RESTAURANT,,,,,,,2008-12-04,2009-04-13,2010-01-07,2011-01-03,2011-12-27,2012-12-24,2013-12-13,2014-12-15,2016-01-16
W MAIN,105,105 W MAIN ST,UNIT 2A,91730,DETOUR THE ADVENTURE TRAVEL MARKETPLACE,SERVICE,OTHER,,,,,,,,,,,,,2014-09-29,,
W MAIN,105,105 W MAIN ST,UNIT 5B,146570,BIG SKY TEST PREP,SERVICE,OTHER,,,2004-08-10,2005-01-21,2006-03-14,,,,,,,,,,
W MAIN,105,105 W MAIN ST,UNIT BB,86580,NATURAL CAPITAL,SERVICE,CONSULTING,,,,,,,,2009-12-10,2010-01-20,,,,,,
W MAIN,105,105 W MAIN ST,UNIT MA,85830,CELLAR 105 - ANTIQUES & GIFTS,RETAIL,ANTIQUES,2002-05-22,2003-06-11,2004-05-24,,,,,,,,,,,,
W MAIN,105,105 W MAIN ST,UNIT MA,85830,MELAQUE MEXICAN RESTAURANT,FOOD SERVICE,RESTAURANT,,2004-06-22,2004-08-10,,,,,,,,,,,,
W MAIN,105,105 W MAIN ST,UNIT MA,85830,ROBIN BAR INC,FOOD SERVICE,RESTAURANT,2002-05-21,,,,,,,,,,,,,,
W MAIN,105,105 W MAIN ST,UNIT MA,85830,"SAVORY OLIVE, LLC",FOOD SERVICE,CATERING,2002-10-11,,,,,,,,,,,,,,
W MAIN,105,105 W MAIN ST,UNIT MA,85830,"SAVORY OLIVE, LLC",FOOD SERVICE,RESTAURANT,,2003-09-18,2004-02-11,2005-01-07,,,,,,,,,,,
W MAIN,121,121 W MAIN ST,UNIT A,228870,BOZEMAN SPIRITS DISTILLERY,RETAIL,SPECIALTY STORE,,,,,,,,,,,,,2014-11-19,2015-01-06,2016-02-04
W MAIN,121,121 W MAIN ST,UNIT B,25860,SCHNEE'S BOOTS AND SHOES,RETAIL,CLOTHING AND/OR SHOES,2002-01-23,2003-02-07,2003-12-23,2004-12-23,2005-12-28,2007-03-13,2008-02-11,2009-02-04,2010-01-26,2011-01-27,2012-01-30,,,,
W MAIN,121,121 W MAIN ST,UNIT B,25860,WHITE DOG BREWING CO,SERVICE,OTHER,,,,,,,,,,,,,,2015-08-19,2016-01-26
W MAIN,122,122 W MAIN ST, ,94610,VICTORY TACO,FOOD SERVICE,RESTAURANT,,,,,,,,,,,,,,2016-02-08,
W MAIN,123,123 W MAIN ST, ,25850,ARTWORKS GALLERY,RETAIL,ART STUDIOS & GALLERIES,2002-02-21,2003-02-18,2004-02-13,2005-02-15,2006-02-15,2007-02-20,2008-02-20,,,,,,,,
W MAIN,123,123 W MAIN ST, ,25850,CHARLIE'S CHOCOLATE FACTORY,RETAIL,SPECIALTY FOOD,,,,,,,,,,,,,,,2016-03-02
W MAIN,123,123 W MAIN ST, ,25850,THE FINANCIAL PIECE,SERVICE,BOOKKEEPING,,,,,,,,,,,,,2014-05-29,,
W MAIN,125,125 W MAIN ST, ,25840,JOHN BOZEMAN'S BISTRO,FOOD SERVICE,RESTAURANT,2002-01-24,2003-12-09,2004-01-13,2005-01-07,2006-01-04,2006-12-26,2007-12-27,2009-01-29,2009-12-23,2010-12-30,2011-12-29,2012-12-24,2014-01-07,2014-12-29,2016-01-04
W MAIN,129,129 W MAIN ST, ,25830,"FMS BONDS, INC",SERVICE,FINANCIAL/INVESTMENT,,,,,,,,2010-01-05,2010-01-25,2011-01-20,2012-02-16,2013-03-11,2014-02-03,2015-03-05,
W MAIN,129,129 W MAIN ST, ,25830,K LIGHT THERAPY,SERVICE,MASSAGE THERAPY,,,,,,,2008-07-17,,,,,,,,
W MAIN,129,129 W MAIN ST, ,25830,LOFT,SERVICE,MASSAGE THERAPY,,,,,,,2008-07-15,,,,,,,,
W MAIN,129,129 W MAIN ST, ,25830,NECTAR,RETAIL,BEAUTY & HEALTH,,,,,,,2009-02-05,,2010-07-07,2011-06-01,2012-02-01,2013-03-27,2014-04-15,,
W MAIN,129,129 W MAIN ST, ,25830,NECTAR,SERVICE,HEALTH & BEAUTY,,,,,,,,,,,,,,2015-06-11,
W MAIN,129,129 W MAIN ST, ,25830,TRANSITIONS,SERVICE,MASSAGE THERAPY,,,2004-09-07,,,,,,,,,,,,
W MAIN,129,129 W MAIN ST, ,25830,"WOOD SHED, THE",RETAIL,HARDWARE STORE,2002-02-21,2003-02-20,2004-02-18,2005-02-16,2006-02-16,,,,,,,,,,
W MAIN,131,131 W MAIN ST, ,63170,18 MILES TO THE BORDER,FOOD SERVICE,RESTAURANT,,,2004-05-11,2005-01-31,2006-07-28,2007-01-11,2008-07-01,2009-03-06,2010-02-02,,,,,,
W MAIN,131,131 W MAIN ST, ,63170,BOZEMAN BBQ,FOOD SERVICE,CATERING,,,,,,,,,,,,2013-07-29,,,
W MAIN,131,131 W MAIN ST, ,63170,CORNERSTONE GRILL,FOOD SERVICE,RESTAURANT,,,,,,,,,,,2012-10-19,2013-03-20,,,
W MAIN,131,131 W MAIN ST, ,63170,MAIN ST JUICE & JAVA,FOOD SERVICE,RESTAURANT,,2003-05-05,,,,,,,,,,,,,
W MAIN,131,131 W MAIN ST, ,63170,SHIRTWORKS/EMPORIUM WEST INC,RETAIL,CLOTHING AND/OR SHOES,,,,,,,,,,,,,,2015-10-22,2016-01-29
W MAIN,131,131 W MAIN ST, ,63170,SUNRISE CAFE OF BOZEMAN,FOOD SERVICE,RESTAURANT,2002-02-13,,,,,,,,,,,,,,
W MAIN,136,136 W MAIN ST, ,14680,CLASSICAL MOTORS,RETAIL,AUTO & RV,,,,2005-06-06,,,,,,,,,,,
W MAIN,202,202 W MAIN ST, ,65120,FIRST INTERSTATE BANK,BANKS,GENERAL,,,2004-11-08,2004-12-23,2006-01-04,2007-01-02,2007-12-24,2008-12-22,2009-12-28,2011-01-05,2012-01-10,2013-01-02,2014-01-06,2014-12-11,2016-01-20
W MAIN,211,211 W MAIN ST, ,25810,VERIDICAL RESEARCH-DESIGN CORP,SERVICE,CONSULTING,2002-01-25,2003-01-23,2004-01-02,2004-12-21,2006-01-03,2006-12-29,2008-05-16,2008-12-31,2009-12-30,2011-01-06,2012-01-27,2013-01-18,2013-12-20,2014-12-11,2016-01-29
W MAIN,211,211 W MAIN ST, ,25810,WELLS FARGO ADVISORS LLC,SERVICE,CONSULTING,,,,,,,,,,,2012-04-10,2013-05-01,2014-05-06,2014-12-29,2016-01-11
W MAIN,211,211 W MAIN ST, ,25810,WELLS FARGO BANK,BANKS,GENERAL,2002-02-15,2003-02-21,2004-02-11,2004-12-30,2006-02-13,2007-01-22,2008-01-15,2009-02-02,2010-02-08,2011-01-31,2012-01-17,2013-01-02,2014-01-22,2015-03-19,2016-02-12
W MAIN,211,211 W MAIN ST, ,25810,WELLS FARGO INVESTMENTS LLC,SERVICE,FINANCIAL/INVESTMENT,,,2004-04-09,2005-01-03,2006-01-10,2007-01-16,2008-01-15,2009-01-05,2010-01-04,2011-01-18,,,,,
W MAIN,311,311 W MAIN ST, ,25050,GALLATIN COUNTY PARKS,CONTRACTORS,GENERAL,,,,,,,,2009-04-29,2009-12-29,2011-01-05,,,,,
W MAIN,323,323 W MAIN ST, ,25010,BEAUTITORIUM FABRIC SHOP,RETAIL,FABRIC STORE,2002-01-01,2003-01-16,2004-01-23,2004-12-17,2005-12-29,2006-12-27,2008-03-05,2009-09-25,2010-01-15,,,,,,
W MAIN,403,403 W MAIN ST, ,25620,GRANDMA'S CAFE/ICE CREAM PRLR,FOOD SERVICE,RESTAURANT,2002-02-21,2003-10-20,2004-01-20,2005-02-15,2006-01-26,2007-02-14,2008-05-15,2009-04-21,,,,,,,
W MAIN,403,403 W MAIN ST, ,25620,"UNI KEYHEALTH SYSTEMS, INC",RETAIL,BEAUTY & HEALTH,2002-01-09,,,,,,,,,,,,,,
W MAIN,405,405 W MAIN ST, ,99830,SPEEDY PRINT,SERVICE,PRINTING,2002-01-11,2003-01-31,2004-01-08,2004-12-23,2005-12-29,2007-01-02,2007-12-28,2009-01-15,2009-12-22,2011-01-05,2011-12-28,,,,
W MAIN,407,407 W MAIN ST, ,25590,ROGUE SALON,SERVICE,HEALTH & BEAUTY,,,,,,,,,,,,,2014-04-10,2015-01-06,2015-12-15
W MAIN,411,411 W MAIN ST, ,23540,HIAWATHA TRAVEL SERVICE,RETAIL,TRAVEL AGENCY,2002-02-21,2003-02-27,,,,,,,,,,,,,
W MAIN,411,411 W MAIN ST, ,23540,IWIRELESS LLC,RETAIL,OTHER,,,,,,,,,,,,,2014-04-24,2015-03-03,2016-01-15
W MAIN,421,421 W MAIN ST, ,23530,BAMBOO GARDEN ASIAN GRILLE,FOOD SERVICE,RESTAURANT,,2003-10-20,2003-12-17,2004-12-21,2005-12-29,2006-12-26,2007-12-24,2009-01-02,2009-12-22,2010-12-28,2011-12-19,2012-12-19,2013-12-16,2014-12-11,2015-12-16
W MAIN,421,421 W MAIN ST, ,23530,FOUR B'S RESTAURANT,FOOD SERVICE,RESTAURANT,2002-01-01,2003-02-04,,,,,,,,,,,,,
W MAIN,421,421 W MAIN ST, ,23530,TRI STAR SUSHI,FOOD SERVICE,TAKEOUT,,,,,,,,,,,,2013-11-20,2014-02-12,2015-01-15,
W MENDENHALL,5,5 W MENDENHALL ST, ,26990,STERLING SAVINGS BANK,BANKS,GENERAL,2002-01-16,2003-01-30,2004-01-02,2004-12-27,2006-01-03,2007-01-02,2008-03-07,2008-12-26,2010-01-06,2011-01-05,2012-01-11,,,,
W MENDENHALL,24,24 W MENDENHALL ST, ,27600,EMILY RUTH'S,RETAIL,FURNITURE/HOME INTERIORS,,,,2006-01-18,2006-04-12,,,,,,,,,,
W MENDENHALL,24,24 W MENDENHALL ST, ,27600,MOVIE MAYHEM,RETAIL,INTERNET SALES,,,2004-04-30,,,,,,,,,,,,
W MENDENHALL,24,24 W MENDENHALL ST, ,27600,MOVIE MAYHEM,RETAIL,OTHER,,,,2005-06-27,,,,,,,,,,,
W MENDENHALL,24,24 W MENDENHALL ST, ,27600,TWIG DESIGN LLC,RETAIL,CLOTHING AND/OR SHOES,,,,2005-06-27,2006-01-06,,,,,,,,,,
W MENDENHALL,24,24 W MENDENHALL ST, ,27600,YOUNG LIFE,SERVICE,OTHER,,,2004-12-27,2005-01-04,,,,,,,,,,,
W MENDENHALL,103,103 W MENDENHALL ST, ,26490,O'REILLY AUTO PARTS #1552,RETAIL,AUTO PARTS & ACCESSORIES,2002-01-24,2003-02-07,2004-01-12,2005-06-06,2006-02-27,2007-01-03,2008-01-11,2009-01-02,2010-01-22,2011-01-03,2012-02-13,2013-02-04,2014-01-27,2015-01-28,2016-02-01
W MENDENHALL,125,125 W MENDENHALL ST, ,25910,"ACE LEASING, INC",RENTALS,EQUIPMENT,2002-01-10,2003-01-21,2003-12-18,2004-12-20,2006-01-04,2006-12-22,2007-12-24,,,,,,,,
W MENDENHALL,125,125 W MENDENHALL ST, ,25910,SPANISH PEAKS BROADCASTING INC,BROADCASTING,RADIO & TV,2002-09-13,2003-02-04,2004-01-14,,,,,,,,,,,,
W MENDENHALL,125,125 W MENDENHALL ST, ,25910,TOWNSQUARE MEDIA,BROADCASTING,RADIO & TV,2002-01-04,2003-01-23,2004-01-06,2005-02-28,2006-01-23,2007-01-22,2008-02-04,2009-02-19,2010-02-17,2011-01-31,2011-12-27,2013-01-04,2014-01-14,2015-02-05,2016-01-26
W MENDENHALL,133,133 W MENDENHALL ST, ,25890,"ACADEMY OF COSMETOLOGY, INC",RETAIL,BEAUTY & HEALTH,2002-01-03,2003-02-12,2004-01-21,2005-01-14,2006-01-12,2007-01-23,2007-12-31,2008-12-24,2010-01-15,2011-01-07,2012-01-04,2013-01-23,2013-12-16,2014-12-23,2016-01-28
W MENDENHALL,215,215 W MENDENHALL ST, ,25080,FIVE STAR COLLECTIONS,SERVICE,COLLECTIONS,2002-02-08,2003-02-14,2004-02-05,2005-05-13,2006-02-15,2007-02-15,,,,,,,,,
W MENDENHALL,215,215 W MENDENHALL ST, ,25080,"INTARSIA DEVELOPMENT, LLC",SERVICE,COMPUTER CONSULTING/SYS DESIGN,2002-01-07,2003-02-20,2004-03-22,,,,,,,,,,,,
W MENDENHALL,215,215 W MENDENHALL ST, ,25080,"SHORT ELLIOTT HENDRICKSON, INC",SERVICE,CONSULTING,2002-05-30,2003-02-07,2004-01-20,,,,,,,,,,,,
